{"type": "FeatureCollection", "features": [{"type": "Feature", "properties": {"denomination": "sunni", "landuse": "cemetery", "name": "\u0645\u0642\u0628\u0631\u0629 \u0627\u0644\u0635\u0642\u0639\u0627 \u0627\u0644\u062c\u0646\u0648\u0628\u064a\u0629", "religion": "muslim", "id": "way/360208088", "@id": "way/360208088"}, "geometry": {"type": "Polygon", "coordinates": [[[685.6709302655781, 0, 263.8395319996339], [678.8461497602565, 0, 257.77259199992284], [675.5335370008154, 0, 253.01922799974292], [688.0157013452539, 0, 215.2038239999841], [710.7450141970679, 0, 126.49291599987407], [720.5531417354108, 0, 50.2721119997895], [720.5531417354108, 0, 34.67617999985393], [739.7203980950887, 0, 2.1373439996659727], [756.6626163663875, 0, -11.677468000020639], [778.0549108144447, 0, -13.90386800033184], [803.9072591893621, 0, -0.9796159999787335], [794.9871513363506, 0, 39.128979999685356], [792.7621132479715, 0, 103.31609199993679], [776.7178924113969, 0, 168.3937639999172], [742.2447686617094, 0, 257.0378799996422], [731.1894224641455, 0, 265.27555999980495], [711.0243911765236, 0, 270.3294879999379], [704.1596996743393, 0, 270.2070359996934], [691.3981583497361, 0, 267.9361079996528], [685.6709302655781, 0, 263.8395319996339]]]}}, {"type": "Feature", "properties": {"denomination": "sunni", "landuse": "cemetery", "name": "\u0645\u0642\u0628\u0631\u0629 \u0628\u0631\u064a\u062f\u0629 \u0627\u0644\u0642\u062f\u064a\u0645\u0629", "religion": "muslim", "id": "way/360208089", "@id": "way/360208089"}, "geometry": {"type": "Polygon", "coordinates": [[[403.3704699918085, 0, 592.5229639996802], [385.6100762802196, 0, 545.7240359997434], [392.10559105912125, 0, 521.8236319996555], [433.4334285616002, 0, 485.61123599964617], [476.46746118970054, 0, 441.5507799996769], [510.9705181868577, 0, 399.204651999967], [566.2971379244768, 0, 338.0677079997662], [616.1958620547615, 0, 293.7066879998439], [634.904141948039, 0, 282.81959199996334], [668.6588677492382, 0, 286.84937599999273], [724.105220477445, 0, 303.1911519999436], [727.3479889925538, 0, 318.7314240000197], [721.0320737005969, 0, 335.12885999982996], [699.1708250360375, 0, 380.55855199998075], [644.0138270366792, 0, 462.1783759998807], [620.7856267216022, 0, 487.7931079998325], [471.18923182255014, 0, 556.277171999676], [403.3704699918085, 0, 592.5229639996802]]]}}, {"type": "Feature", "properties": {"building": "yes", "shop": "greengrocer", "id": "way/666903113", "@id": "way/666903113"}, "geometry": {"type": "Polygon", "coordinates": [[[191.58276385366202, 0, 44.42781199991188], [103.4493044965322, 0, -5.788640000018148], [114.99356040938406, 0, -26.071144000144102], [203.13699751590673, 0, 24.134175999655838], [191.58276385366202, 0, 44.42781199991188]]]}}, {"type": "Feature", "properties": {"building": "yes", "shop": "greengrocer", "id": "way/666903116", "@id": "way/666903116"}, "geometry": {"type": "Polygon", "coordinates": [[[202.82768728827247, 0, 20.616463999678274], [160.76149633922847, 0, -5.677320000299204], [172.4753739896323, 0, -26.238124000118006], [215.02049690386252, 0, -1.135464000218036], [202.82768728827247, 0, 20.616463999678274]]]}}, {"type": "Feature", "properties": {"addr:street": "\u0634\u0627\u0631\u0639 \u0627\u0644\u062a\u0639\u0644\u064a\u0645", "amenity": "hospital", "healthcare": "hospital", "name": "\u0645\u0633\u062a\u0634\u0641\u0649 \u0628\u0631\u064a\u062f\u0629 \u0627\u0644\u0645\u0631\u0643\u0632\u064a", "name:en": "Buraydah Central Hospital", "website": "https://qassimedu.gov.sa/", "id": "way/974827522", "@id": "way/974827522"}, "geometry": {"type": "Polygon", "coordinates": [[[1138.4512146730922, 0, 370.5508839996992], [1018.3789798829973, 0, 533.66807999965], [965.1077764969143, 0, 605.647592000002], [961.8051414861571, 0, 604.5455239997787], [915.9174725650162, 0, 666.9292519999165], [919.2201075750644, 0, 669.9237599997122], [851.6408117269159, 0, 761.5401199997636], [699.8293564881685, 0, 646.5020319996813], [843.3093910809943, 0, 435.45044399997107], [847.2406242964129, 0, 433.8808319998209], [854.1552045448525, 0, 423.81750399967984], [853.6862503283502, 0, 419.8879079996348], [966.045684928501, 0, 258.65201999991723], [969.8172741550516, 0, 255.8244919997], [978.7772930049256, 0, 254.72242399987223], [1138.4512146730922, 0, 370.5508839996992]]]}}, {"type": "Feature", "properties": {"building": "yes", "layer": "1", "name": "\u0627\u0644\u0625\u062f\u0627\u0631\u0629 \u0627\u0644\u0639\u0627\u0645\u0629 \u0644\u0644\u062a\u0639\u0644\u064a\u0645 \u0628\u0645\u0646\u0637\u0642\u0629 \u0627\u0644\u0642\u0635\u064a\u0645", "office": "government", "website": "https://qassimedu.gov.sa/", "id": "way/974827523", "@id": "way/974827523"}, "geometry": {"type": "Polygon", "coordinates": [[[926.473931299317, 0, 269.8842079998757], [734.9011451943388, 0, 546.9485559998157], [655.2188394744271, 0, 476.2269599999263], [655.3784834625862, 0, 469.78153199974713], [772.4573934702672, 0, 286.38183199967034], [778.114777310093, 0, 281.82884399985454], [863.3846226254983, 0, 271.1532559996773], [922.3930318451321, 0, 263.7616079999097], [926.473931299317, 0, 269.8842079998757]]]}}, {"type": "Feature", "properties": {"amenity": "place_of_worship", "building": "yes", "denomination": "sunni", "name": "\u0645\u0633\u062c\u062f \u0627\u0644\u062d\u0645\u064a\u062f\u064a", "religion": "muslim", "id": "way/974981015", "@id": "way/974981015"}, "geometry": {"type": "Polygon", "coordinates": [[[281.1629968557434, 0, 99.10819599980343], [260.199745626617, 0, 85.51602399995019], [280.115333182253, 0, 55.537548000021246], [309.74924853240486, 0, 74.9740199997521], [299.9111877458834, 0, 90.90391199963548], [294.28373715423623, 0, 89.03373599992776], [281.1629968557434, 0, 99.10819599980343]]]}}, {"type": "Feature", "properties": {"amenity": "parking", "id": "way/974986169", "@id": "way/974986169"}, "geometry": {"type": "Polygon", "coordinates": [[[259.122148704948, 0, 81.57529599977508], [210.41077673823608, 0, 55.882639999703656], [298.1950148708691, 0, -95.3233160002631], [385.1710553118958, 0, -48.49099200033152], [308.0929421530388, 0, 68.72896799993711], [279.8559117008741, 0, 50.92889999995052], [259.122148704948, 0, 81.57529599977508]]]}}, {"type": "Feature", "properties": {"building": "yes", "shop": "greengrocer", "id": "way/974986171", "@id": "way/974986171"}, "geometry": {"type": "Polygon", "coordinates": [[[89.32081152141147, 0, 36.46843199983749], [43.233587613830956, 0, 65.51181999991257], [37.26689354707984, 0, 56.04961999967756], [83.3541174539514, 0, 27.006231999997965], [89.32081152141147, 0, 36.46843199983749]]]}}, {"type": "Feature", "properties": {"building": "yes", "shop": "greengrocer", "id": "way/974986172", "@id": "way/974986172"}, "geometry": {"type": "Polygon", "coordinates": [[[120.76069949040459, 0, 53.06624400001198], [65.69350123487325, 0, 86.69601599989761], [60.335449873288844, 0, 77.03343999969391], [115.39267038013627, 0, 42.80253999990222], [120.76069949040459, 0, 53.06624400001198]]]}}, {"type": "Feature", "properties": {"building": "yes", "shop": "greengrocer", "id": "way/974986173", "@id": "way/974986173"}, "geometry": {"type": "Polygon", "coordinates": [[[150.4844145850923, 0, 70.02027999999896], [89.031456791854, 0, 107.63530799978909], [83.07474047449575, 0, 98.18423999968417], [144.91683048838445, 0, 60.55807999976395], [150.4844145850923, 0, 70.02027999999896]]]}}, {"type": "Feature", "properties": {"building": "yes", "shop": "greengrocer", "id": "way/974986174", "@id": "way/974986174"}, "geometry": {"type": "Polygon", "coordinates": [[[177.81346985243096, 0, 88.17657199979806], [116.56006704563218, 0, 126.19235199992104], [110.60335072756499, 0, 116.73015199968603], [171.24811082848808, 0, 78.51399599998985], [177.81346985243096, 0, 88.17657199979806]]]}}, {"type": "Feature", "properties": {"amenity": "marketplace", "id": "way/974986176", "@id": "way/974986176"}, "geometry": {"type": "Polygon", "coordinates": [[[273.7694846421175, 0, 131.7806159999705], [197.45965817729518, 0, 236.90009200002095], [157.81806030306993, 0, 214.3800559998492], [104.91603364026952, 0, 174.39391199963865], [43.093899124457614, 0, 118.51127199993499], [59.686896170550646, 0, 99.4866839998761], [107.36058221245608, 0, 141.04243999984135], [118.88488262652218, 0, 141.04243999984135], [137.3936075340691, 0, 127.94007599977974], [139.83815610696465, 0, 129.86591199974242], [193.7978241933573, 0, 100.8781839999223], [191.6925190955657, 0, 94.24351199990454], [210.38084349005746, 0, 83.5901879999875], [215.61916186034532, 0, 86.90752399999639], [217.36526798353827, 0, 93.72030799972265], [206.020567056417, 0, 99.30857199977211], [211.07928593976, 0, 110.65207999984494], [233.95826503034027, 0, 99.65366399985001], [271.49455780748286, 0, 121.13842399978807], [273.7694846421175, 0, 131.7806159999705]]]}}, {"type": "Feature", "properties": {"amenity": "place_of_worship", "building": "mosque", "denomination": "sunni", "name": "\u062c\u0627\u0645\u0639 \u0627\u0644\u0645\u0644\u0643 \u0641\u0647\u062f", "religion": "muslim", "id": "way/1123382127", "@id": "way/1123382127"}, "geometry": {"type": "Polygon", "coordinates": [[[46.97524359291183, 0, 307.4881039999312], [92.36402505078979, 0, 363.3484799997701], [56.054995434082414, 0, 395.62014799999986], [56.66363813995808, 0, 406.51837600001045], [36.08951913219105, 0, 430.3185919997185], [-22.410024874786895, 0, 379.690255999721], [-1.2272631611442, 0, 359.91982399964684], [-9.498817310708535, 0, 349.6338559996724], [46.97524359291183, 0, 307.4881039999312]]]}}, {"type": "Feature", "properties": {"name": "\u0627\u0644\u0633\u0627\u062f\u0629", "name:ar": "\u0627\u0644\u0633\u0627\u062f\u0629", "name:en": "As Saddah", "place": "suburb", "id": "way/1299511459", "@id": "way/1299511459"}, "geometry": {"type": "Polygon", "coordinates": [[[579.148478992198, 0, 244.5923039997416], [637.2489130277147, 0, 163.5624760000131], [750.3866120712931, 0, -45.897236000077726], [943.0369950979403, 0, -235.49746000024015], [1077.5869440883616, 0, -350.1681919999844], [1106.6321722314237, 0, -389.9205640002315], [1141.8037384301047, 0, -533.6458160001808], [1187.671451853169, 0, -732.4188080003598], [1458.2979454733972, 0, -556.5888680001547], [1589.7847254363637, 0, -483.1955920002873], [1933.1589890299872, 0, -291.0238760001313], [1555.7606004043926, 0, 308.3341359999308], [1233.5391652762332, 0, 244.5923039997416], [1117.3382972044906, 0, 226.24676799970842], [962.9126716560048, 0, 240.00591999993105], [784.0315826312977, 0, 258.35145599996423], [715.225023622005, 0, 284.3446759999887], [579.148478992198, 0, 244.5923039997416]]]}}, {"type": "Feature", "properties": {"name": "\u0627\u0644\u062e\u0628\u064a\u0628", "name:ar": "\u0627\u0644\u062e\u0628\u064a\u0628", "name:en": "Al Khubayb", "place": "suburb", "id": "way/1299511460", "@id": "way/1299511460"}, "geometry": {"type": "Polygon", "coordinates": [[[-380.05246993290456, 0, 1484.6191799997375], [-63.77777337412833, 0, 1031.9697959996859], [87.5946608962953, 0, 814.8735319997338], [222.9029188320675, 0, 639.0547239996588], [337.5771912644244, 0, 499.15887999977], [362.03265473993673, 0, 535.092975999691], [389.56126499371493, 0, 594.7159679999966], [424.72285344300315, 0, 647.4593839997954], [467.53737558729614, 0, 700.9709079998696], [585.2648392984242, 0, 778.1824599996675], [467.53737558729614, 0, 955.5263519997679], [250.42155133574389, 0, 1255.1775279998692], [102.11228609348431, 0, 1484.4967279998884], [-88.28312559660499, 0, 1819.0133279996824], [-164.9920620321795, 0, 1696.5056679997128], [-213.5537677601252, 0, 1646.5897799997358], [-300.04089848657287, 0, 1563.6007199996543], [-380.05246993290456, 0, 1484.6191799997375]]]}}, {"type": "Feature", "properties": {"name": "\u0627\u0644\u062a\u0639\u0644\u064a\u0645", "name:ar": "\u0627\u0644\u062a\u0639\u0644\u064a\u0645", "name:en": "At Ta'leem", "place": "suburb", "id": "way/1299511461", "@id": "way/1299511461"}, "geometry": {"type": "Polygon", "coordinates": [[[585.2648392984242, 0, 778.1824599996675], [467.53737558729614, 0, 700.9709079998696], [424.72285344300315, 0, 647.4593839997954], [389.56126499371493, 0, 594.7159679999966], [362.03265473993673, 0, 535.092975999691], [337.5771912644244, 0, 499.15887999977], [493.5294124522959, 0, 357.737951999856], [553.1564421271983, 0, 285.8808919997486], [579.148478992198, 0, 244.5923039997416], [715.225023622005, 0, 284.3446759999887], [784.0315826312977, 0, 258.35145599996423], [962.9126716560048, 0, 240.00591999993105], [1117.3382972044906, 0, 226.24676799970842], [1233.5391652762332, 0, 244.5923039997416], [1555.7606004043926, 0, 308.3341359999308], [1009.7182935106557, 0, 1080.483051999882], [585.2648392984242, 0, 778.1824599996675]]]}}, {"type": "Feature", "properties": {"name": "\u0627\u0644\u062a\u063a\u064a\u0631\u0629", "name:ar": "\u0627\u0644\u062a\u063a\u064a\u0631\u0629", "name:en": "At Tughayrah", "place": "suburb", "id": "way/1299511462", "@id": "way/1299511462"}, "geometry": {"type": "Polygon", "coordinates": [[[1009.7182935106557, 0, 1080.483051999882], [839.8371343333941, 0, 1346.3040799997336], [674.3661403353194, 0, 1650.7308839998796], [618.1115899155064, 0, 1768.752348000023], [494.5571206277095, 0, 2033.4601759999166], [401.89376309867833, 0, 2234.2035319997876], [290.2527264470158, 0, 2475.5341599997755], [276.98231990904776, 0, 2469.823443999877], [255.49024796847976, 0, 2447.826611999887], [101.45375464135324, 0, 2157.125563999969], [-88.28312559660499, 0, 1819.0133279996824], [102.11228609348431, 0, 1484.4967279998884], [250.42155133574389, 0, 1255.1775279998692], [467.53737558729614, 0, 955.5263519997679], [585.2648392984242, 0, 778.1824599996675], [1009.7182935106557, 0, 1080.483051999882]]]}}, {"type": "Feature", "properties": {"name": "\u0627\u0644\u0628\u0648\u0637\u0629", "name:ar": "\u0627\u0644\u0628\u0648\u0637\u0629", "name:en": "Al Butah", "place": "suburb", "id": "way/1299781141", "@id": "way/1299781141"}, "geometry": {"type": "Polygon", "coordinates": [[[233.28975582881634, 0, -1175.07165600026], [563.5432791239471, 0, -1038.5710720001043], [447.9310982600034, 0, -803.0513479999995], [358.0016440327163, 0, -633.9006080003323], [235.97377038359602, 0, -401.5980320002521], [112.8583220641228, 0, -208.36877599999767], [49.699169145263006, 0, -25.848504000310726], [-53.061670650959506, 0, 79.05946399964094], [-123.71411327666496, 0, 175.40692400000765], [-267.1642146213121, 0, 81.20793999983249], [-322.4808566088294, 0, 44.81743199971916], [-182.59281175560938, 0, -484.56482800007336], [-138.70069268964735, 0, -685.2859200000797], [-57.35210284026777, 0, -783.7818560002426], [90.37845294429475, 0, -997.8947440001334], [233.28975582881634, 0, -1175.07165600026]]]}}, {"type": "Feature", "properties": {"name": "\u0627\u0644\u0639\u062c\u064a\u0628\u0629", "name:ar": "\u0627\u0644\u0639\u062c\u064a\u0628\u0629", "name:en": "Al 'Ajeebah", "place": "suburb", "id": "way/1299781146", "@id": "way/1299781146"}, "geometry": {"type": "Polygon", "coordinates": [[[-123.71411327666496, 0, 175.40692400000765], [32.57735138701937, 0, 273.89172799964484], [-125.85932937061014, 0, 466.57551599985266], [-196.5117719963156, 0, 562.9118439996938], [-273.5898851551727, 0, 667.8198119996455], [-366.7221968999972, 0, 800.55777999973], [-442.7227131371852, 0, 737.3948119999777], [-514.4527526845598, 0, 709.5648119998448], [-493.0405027377168, 0, 676.3803200000214], [-478.0539233247344, 0, 623.9263359996501], [-466.2801791786823, 0, 559.7058279997993], [-458.7868894725456, 0, 475.1360239998331], [-436.30702035271753, 0, 391.64602399982994], [-405.2562646050838, 0, 302.79040000000623], [-344.2423277808781, 0, 200.0309079998506], [-267.1642146213121, 0, 81.20793999983249], [-123.71411327666496, 0, 175.40692400000765]]]}}, {"type": "Feature", "properties": {"name": "\u0627\u0644\u062c\u0631\u062f\u0629", "name:ar": "\u0627\u0644\u062c\u0631\u062f\u0629", "name:en": "Al Juradah", "place": "suburb", "id": "way/1299781148", "@id": "way/1299781148"}, "geometry": {"type": "Polygon", "coordinates": [[[-366.7221968999972, 0, 800.55777999973], [-273.5898851551727, 0, 667.8198119996455], [-196.5117719963156, 0, 562.9118439996938], [-125.85932937061014, 0, 466.57551599985266], [32.57735138701937, 0, 273.89172799964484], [-123.71411327666496, 0, 175.40692400000765], [-53.061670650959506, 0, 79.05946399964094], [49.699169145263006, 0, -25.848504000310726], [112.8583220641228, 0, -208.36877599999767], [404.57777765416694, 0, -60.63600400027909], [504.6645806442937, 0, -222.8181119999806], [750.3866120712931, 0, -45.897236000077726], [637.2489130277147, 0, 163.5624760000131], [579.148478992198, 0, 244.5923039997416], [553.1564421271983, 0, 285.8808919997486], [493.5294124522959, 0, 357.737951999856], [337.5771912644244, 0, 499.15887999977], [222.9029188320675, 0, 639.0547239996588], [87.5946608962953, 0, 814.8735319997338], [-63.77777337412833, 0, 1031.9697959996859], [-366.7221968999972, 0, 800.55777999973]]]}}, {"type": "Feature", "properties": {"highway": "residential", "id": "way/121936391", "@id": "way/121936391"}, "geometry": {"type": "LineString", "coordinates": [[14.397892205892461, 0, 531.9760159996508], [21.73153792387008, 0, 537.1969239997577], [42.69478915299644, 0, 557.5016919997483], [68.52718202912811, 0, 583.9624559996997], [105.7641423287383, 0, 628.8912079999288], [122.15758438910075, 0, 647.1254239998475], [169.54191570215767, 0, 696.6962199997466]]}}, {"type": "Feature", "properties": {"highway": "tertiary", "oneway": "yes", "id": "way/121936678", "@id": "way/121936678"}, "geometry": {"type": "LineString", "coordinates": [[143.9489888086191, 0, 349.27763199985986], [129.71074059159469, 0, 370.98503199963136], [118.54563915141826, 0, 387.5049199996862], [101.77304261767142, 0, 412.3070159996331], [64.47621582312193, 0, 468.9688959997423], [55.31664198751732, 0, 481.425603999773], [38.424312463182886, 0, 504.4020519997416], [23.776976525304438, 0, 521.1223159997651], [14.397892205892461, 0, 531.9760159996508], [3.472256748309143, 0, 545.7351679998735], [-6.904602499046792, 0, 557.7911239999668], [-19.267033852188806, 0, 572.1402719999653], [-30.02304757222016, 0, 584.6415079997255], [-35.60060941761194, 0, 588.0590319997186], [-42.05621319965112, 0, 589.2278919999314], [-48.751282963574454, 0, 587.4356399999479], [-57.12261460635856, 0, 582.2592599999659], [-72.14910501691243, 0, 572.028951999851], [-109.81510853474448, 0, 540.5253919998967], [-148.3292207410453, 0, 500.7284919999202]]}}, {"type": "Feature", "properties": {"highway": "tertiary", "oneway": "yes", "id": "way/121936768", "@id": "way/121936768"}, "geometry": {"type": "LineString", "coordinates": [[290.4223481845678, 0, 123.04199599988607], [212.575948330967, 0, 77.61230399973527], [181.0362828687541, 0, 60.78071999999281], [150.47443683569944, 0, 43.39253599967819], [119.9125908019358, 0, 27.941319999851828], [40.848905537292666, 0, -17.388184000314624], [36.73807283492924, 0, -29.522064000132104]]}}, {"type": "Feature", "properties": {"highway": "trunk", "name": "\u0637\u0631\u064a\u0642 \u0627\u0644\u0645\u0644\u0643 \u0639\u0628\u062f \u0627\u0644\u0639\u0632\u064a\u0632", "name:en": "King Abdulaziz Road", "oneway": "yes", "id": "way/122188040", "@id": "way/122188040"}, "geometry": {"type": "LineString", "coordinates": [[750.5861670570238, 0, -17.488372000298966], [736.7470288107515, 0, -3.4731840002481817], [724.923395918444, 0, 16.26385199983119], [667.3318270955832, 0, 115.97317599993616], [620.965226208547, 0, 195.8786719999722], [616.3056172966652, 0, 204.14974799973422], [587.3402111480373, 0, 247.41983199995886], [547.7085910224959, 0, 299.0277839999351], [514.512619180208, 0, 338.1901600000107], [496.7322699698333, 0, 357.0477679997002], [402.7219162890703, 0, 444.33377999976926], [344.22237228209235, 0, 501.48546799967005], [335.1825314377843, 0, 510.66936799981676], [179.7092422150991, 0, 703.3642879997592], [-2.654081307310022, 0, 948.6801719996514], [-27.917742475137523, 0, 983.0446559998177], [-59.96627315071526, 0, 1032.637715999977], [-93.68108795505194, 0, 1080.1156959999394], [-104.99585563399458, 0, 1098.1050079997647], [-173.18379418801877, 0, 1201.0537439997588], [-214.66129792997285, 0, 1263.66011199973], [-283.7073229218587, 0, 1365.406591999912], [-334.2246675074119, 0, 1429.8497399999917], [-379.4039162301664, 0, 1484.4299359998988], [-385.490343288923, 0, 1493.8253439997488], [-410.883715196731, 0, 1528.6796359997068], [-448.34018598014853, 0, 1583.3488879998638], [-495.32540732174425, 0, 1655.038967999997], [-622.6813990842703, 0, 1849.1031239997258], [-671.1932160652517, 0, 1923.0084719996448], [-733.0452838292422, 0, 2010.773159999771], [-788.3020593211112, 0, 2081.528151999655], [-857.3979730592525, 0, 2167.9903959999847], [-960.5279895787576, 0, 2297.255179999821], [-1013.8490817110959, 0, 2364.5815159999775], [-1046.1271006198738, 0, 2403.6659679999334], [-1083.4339051638162, 0, 2450.030747999938], [-1127.5056237174322, 0, 2505.1452799997614], [-1167.8257085425741, 0, 2561.629047999767], [-1204.9030248533163, 0, 2627.3301119999137], [-1236.1732910854664, 0, 2694.957012000023], [-1268.880353213175, 0, 2766.3687919996723], [-1279.676277930069, 0, 2788.4324159996518], [-1310.228146213731, 0, 2850.8829359997794], [-1328.9962926026567, 0, 2889.266071999845], [-1349.8398108404865, 0, 2929.7642879997115], [-1371.870681242598, 0, 2969.5277919996934], [-1399.08000351864, 0, 3023.8630839999028], [-1400.6664656536739, 0, 3027.035703999802], [-1415.2539350959041, 0, 3057.6041759999025], [-1429.851382286818, 0, 3088.172648000003], [-1444.2592522421035, 0, 3120.4220519999726], [-1499.5559387308351, 0, 3230.383947999662], [-1559.472323135295, 0, 3351.7672759999386], [-1562.2760706813713, 0, 3358.1013840000037], [-1650.1002198115757, 0, 3528.6881519998415], [-1655.8474033945195, 0, 3540.120715999769], [-1712.3414197969255, 0, 3648.7801679996614], [-1737.4753702233547, 0, 3690.1689439996526], [-1759.7057956111967, 0, 3714.035951999746], [-1777.9151880405022, 0, 3731.991867999972], [-1804.0768466430538, 0, 3760.523183999995], [-1821.2086421499814, 0, 3777.7443879999405], [-1827.394846701249, 0, 3782.9318999996567], [-1832.4535655845918, 0, 3787.529415999993], [-1842.6208920968245, 0, 3796.7689759999994], [-1881.5740252714488, 0, 3828.116687999714], [-1908.4241485743103, 0, 3849.4344679996784], [-1925.5858773294165, 0, 3860.944955999725], [-1944.4737567089298, 0, 3873.602039999724], [-1972.431410181639, 0, 3893.506055999778], [-2005.028717066735, 0, 3914.3785559996795], [-2091.7253805283062, 0, 3964.305575999787], [-2125.420239834566, 0, 3980.7030119999927], [-2158.197146207316, 0, 3997.6793119998442], [-2257.655350992781, 0, 4049.187075999836], [-2430.35023546693, 0, 4138.398923999868], [-2447.422164478209, 0, 4154.863151999668], [-2458.387710932655, 0, 4179.620719999885], [-2466.9985085580324, 0, 4205.090735999728]]}}, {"type": "Feature", "properties": {"highway": "tertiary", "id": "way/139943102", "@id": "way/139943102"}, "geometry": {"type": "LineString", "coordinates": [[671.8717030161685, 0, -90.71466800019238], [617.8521684348365, 0, -35.93409600031649], [570.7771473494139, 0, 3.3395999998735704], [536.4237565910229, 0, 34.15297599967204], [524.2608802229025, 0, 48.01231599987901], [515.2110616299105, 0, 62.149955999778825], [507.29870645352696, 0, 75.71986399976737], [477.5550358607624, 0, 123.38708799996397], [465.5518034815101, 0, 143.09072799965307], [445.3767944452042, 0, 176.23069199974708], [432.4456313830491, 0, 196.0679159998108], [417.09985299617705, 0, 219.63435999995085], [395.5578923086447, 0, 255.76883199984053], [376.6001686833811, 0, 283.1535519999112], [372.708846466243, 0, 288.7640799998253], [352.55379292801393, 0, 324.0636519998455], [341.8376902048451, 0, 342.8210719999461], [330.39321178521305, 0, 355.5560799996697], [321.103927208919, 0, 364.1165879996501], [290.981102144188, 0, 392.8594119997722], [274.0887726191446, 0, 407.39780400000484], [260.0201461396722, 0, 421.95845999970675]]}}, {"type": "Feature", "properties": {"highway": "residential", "id": "way/139943103", "@id": "way/139943103"}, "geometry": {"type": "LineString", "coordinates": [[179.7092422150991, 0, 703.3642879997592], [220.23885977536463, 0, 737.7621679999203], [263.13320391409167, 0, 774.2639959997525], [306.09739229715086, 0, 816.3429559998997], [347.8343175204838, 0, 857.909843999995], [378.99482851002125, 0, 886.3854999997634], [385.240899556937, 0, 892.3299880000208], [421.9689946431823, 0, 927.3067319998278], [461.79019200435243, 0, 959.2667039999743]]}}, {"type": "Feature", "properties": {"highway": "residential", "id": "way/378355952", "@id": "way/378355952"}, "geometry": {"type": "LineString", "coordinates": [[220.23885977536463, 0, 737.7621679999203], [31.81904244237749, 0, 974.8181079997851], [9.678416797653371, 0, 1008.3476919996863], [-25.153905925214854, 0, 1052.686447999744]]}}, {"type": "Feature", "properties": {"highway": "residential", "id": "way/378355953", "@id": "way/378355953"}, "geometry": {"type": "LineString", "coordinates": [[370.9228293454786, 0, 537.9872959998978], [436.47664209026954, 0, 472.87622799992266], [490.00726695773136, 0, 415.0677519998608], [541.731919205643, 0, 361.28905999982834], [587.2903224010729, 0, 314.1895679999385], [635.5826288982469, 0, 268.80440399991255]]}}, {"type": "Feature", "properties": {"highway": "residential", "id": "way/378355954", "@id": "way/378355954"}, "geometry": {"type": "LineString", "coordinates": [[92.64340203024544, 0, 1139.3601999997768], [120.36158951965238, 0, 1097.425955999739], [306.09739229715086, 0, 816.3429559998997], [420.60204299195584, 0, 647.2256119998319]]}}, {"type": "Feature", "properties": {"highway": "residential", "id": "way/378355955", "@id": "way/378355955"}, "geometry": {"type": "LineString", "coordinates": [[205.4318798493271, 0, 1221.247191999635], [234.0081537765957, 0, 1182.4633039996322], [253.08561039244677, 0, 1156.5591399998575], [299.29256729132385, 0, 1084.3347239998075], [347.4551630478084, 0, 1022.6745759998203], [421.9689946431823, 0, 927.3067319998278], [547.1598148122686, 0, 759.8146599997697]]}}, {"type": "Feature", "properties": {"highway": "residential", "id": "way/378355956", "@id": "way/378355956"}, "geometry": {"type": "LineString", "coordinates": [[773.9041671152188, 0, 266.533475999872], [743.7114978054467, 0, 316.5829479998281], [691.2584698603628, 0, 407.57591599971335], [647.0969515636291, 0, 473.6777319997974], [629.8653785634817, 0, 489.8970559998992], [613.4619587530175, 0, 499.7043479998166], [597.068516691946, 0, 509.5005079999994], [491.5039293489383, 0, 556.5220759997696], [398.61108358741586, 0, 601.2281879997698]]}}, {"type": "Feature", "properties": {"highway": "residential", "id": "way/378355959", "@id": "way/378355959"}, "geometry": {"type": "LineString", "coordinates": [[132.00562292501505, 0, 1167.936043999925], [160.4920971091657, 0, 1126.636323999788], [184.95753833407088, 0, 1091.5371279997364], [227.67228298585306, 0, 1030.266599999952], [347.8343175204838, 0, 857.909843999995], [463.5263203788615, 0, 696.9188599999756], [468.05621855005387, 0, 690.6181479999055]]}}, {"type": "Feature", "properties": {"highway": "residential", "id": "way/378355961", "@id": "way/378355961"}, "geometry": {"type": "LineString", "coordinates": [[166.96765638928167, 0, 1193.3281359996479], [194.67586612929574, 0, 1155.1231119996864], [215.88856109040807, 0, 1125.8570839997778], [219.45061758254414, 0, 1120.9590039998843], [262.79396043827876, 0, 1060.022435999652], [265.5478192388086, 0, 1057.384151999669], [385.240899556937, 0, 892.3299880000208], [506.02155454612733, 0, 730.4929720000017], [511.28980616388486, 0, 723.4352839997864]]}}, {"type": "Feature", "properties": {"highway": "residential", "surface": "asphalt", "id": "way/463438039", "@id": "way/463438039"}, "geometry": {"type": "LineString", "coordinates": [[210.27108824815377, 0, 246.6405919999488], [147.45117880510688, 0, 210.67309999963754], [84.56142511630985, 0, 163.82964399997135], [42.54512291423023, 0, 124.48915599979173], [4.280454439206428, 0, 93.9874759996809], [-35.570676170142285, 0, 71.82366399971713]]}}, {"type": "Feature", "properties": {"highway": "residential", "surface": "asphalt", "id": "way/463441357", "@id": "way/463441357"}, "geometry": {"type": "LineString", "coordinates": [[69.42517946456125, 0, 95.26765600000815], [150.47443683569944, 0, 43.39253599967819]]}}, {"type": "Feature", "properties": {"highway": "residential", "surface": "asphalt", "id": "way/463441358", "@id": "way/463441358"}, "geometry": {"type": "LineString", "coordinates": [[45.28900396536715, 0, 72.5472439998677], [119.9125908019358, 0, 27.941319999851828]]}}, {"type": "Feature", "properties": {"highway": "residential", "surface": "asphalt", "id": "way/463441361", "@id": "way/463441361"}, "geometry": {"type": "LineString", "coordinates": [[91.47600536474953, 0, 114.64846799987953], [181.0362828687541, 0, 60.78071999999281]]}}, {"type": "Feature", "properties": {"highway": "residential", "surface": "asphalt", "id": "way/463441362", "@id": "way/463441362"}, "geometry": {"type": "LineString", "coordinates": [[195.4241973252537, 0, 57.084895999911254], [258.9724824654728, 0, -52.576436000220355], [278.0499390820329, 0, -85.4826280003509], [296.1595540181186, 0, -116.73015200008152]]}}, {"type": "Feature", "properties": {"highway": "tertiary", "oneway": "yes", "surface": "asphalt", "id": "way/463441363", "@id": "way/463441363"}, "geometry": {"type": "LineString", "coordinates": [[36.73807283492924, 0, -29.522064000132104], [195.4241973252537, 0, 57.084895999911254], [296.877951965898, 0, 114.6929960000044]]}}, {"type": "Feature", "properties": {"highway": "residential", "surface": "asphalt", "id": "way/463441375", "@id": "way/463441375"}, "geometry": {"type": "LineString", "coordinates": [[212.575948330967, 0, 77.61230399973527], [114.7341389280052, 0, 134.218523999985], [91.47600536474953, 0, 114.64846799987953], [77.5370896259665, 0, 102.91533999999942], [69.42517946456125, 0, 95.26765600000815], [45.28900396536715, 0, 72.5472439998677], [0.9977749279439575, 0, 29.878287999944604]]}}, {"type": "Feature", "properties": {"highway": "tertiary", "id": "way/704208198", "@id": "way/704208198"}, "geometry": {"type": "LineString", "coordinates": [[143.9489888086191, 0, 349.27763199985986], [170.72926786643933, 0, 307.77753599975415], [197.9984566381297, 0, 265.6095199997527], [210.27108824815377, 0, 246.6405919999488], [233.0702453443, 0, 212.19818399966286], [253.68427534892956, 0, 181.0619799996512], [290.4223481845678, 0, 123.04199599988607]]}}, {"type": "Feature", "properties": {"highway": "tertiary", "name": "\u0634\u0627\u0631\u0639 \u0627\u0644\u0635\u0646\u0627\u0639\u0629", "oneway": "yes", "id": "way/704208200", "@id": "way/704208200"}, "geometry": {"type": "LineString", "coordinates": [[-148.3292207410453, 0, 500.7284919999202], [-127.86485697518197, 0, 475.41432399992146], [-121.80836316460395, 0, 467.93361999990407], [-94.00037593207907, 0, 433.535739999743], [-48.83110495800848, 0, 381.62722399981374], [8.012132668894434, 0, 316.31577999986985], [37.54627052653549, 0, 282.3743119999011]]}}, {"type": "Feature", "properties": {"highway": "tertiary", "name": "\u0634\u0627\u0631\u0639 \u0627\u0644\u062a\u0639\u0644\u064a\u0645", "oneway": "yes", "id": "way/706348072", "@id": "way/706348072"}, "geometry": {"type": "LineString", "coordinates": [[956.7963113497785, 0, 244.54777600001222], [956.9759108367233, 0, 256.3142999998871], [848.2982657192962, 0, 417.95093999993753], [781.6868115509129, 0, 516.6806479996683], [776.8974918983417, 0, 523.7828640000084], [691.9569123093564, 0, 648.3610759996544], [598.1062026167525, 0, 783.7150639998574], [592.7082402583055, 0, 790.9397319996513], [473.1847816777291, 0, 958.7546319999226], [468.12606279509504, 0, 965.8568479998672], [425.5310511346094, 0, 1021.0270399999458], [396.2663125070311, 0, 1058.9314999999544], [372.1600702560156, 0, 1090.1567599998205], [352.3442601928905, 0, 1115.8271519996315], [344.7312374954572, 0, 1127.3487719998084], [300.6295856943717, 0, 1194.0183199998037], [284.05654414635546, 0, 1219.0875839997088], [257.32615383479066, 0, 1259.5078759998516]]}}, {"type": "Feature", "properties": {"highway": "residential", "id": "way/748831417", "@id": "way/748831417"}, "geometry": {"type": "LineString", "coordinates": [[801.4726883658595, 0, 108.91548799972085], [775.4307627546044, 0, 184.78006799999292], [749.5285256334315, 0, 261.2235119999109]]}}, {"type": "Feature", "properties": {"highway": "tertiary", "id": "way/759976302", "@id": "way/759976302"}, "geometry": {"type": "LineString", "coordinates": [[290.4223481845678, 0, 123.04199599988607], [343.88312880698845, 0, 146.89787199984906], [375.18332828660823, 0, 166.25641999985575], [432.4456313830491, 0, 196.0679159998108], [476.1481732126734, 0, 216.82909599999377], [514.9616178979246, 0, 235.2748200000113], [561.6275512624932, 0, 263.72821199991495]]}}, {"type": "Feature", "properties": {"highway": "residential", "id": "way/759995326", "@id": "way/759995326"}, "geometry": {"type": "LineString", "coordinates": [[578.9389462570746, 0, -56.38358000002086], [540.9436770128225, 0, 4.040915999763968], [536.4237565910229, 0, 34.15297599967204]]}}, {"type": "Feature", "properties": {"highway": "residential", "id": "way/759995334", "@id": "way/759995334"}, "geometry": {"type": "LineString", "coordinates": [[542.3804729090901, 0, -75.05194400026724], [471.6581860383435, 0, 48.42419999994647]]}}, {"type": "Feature", "properties": {"highway": "residential", "id": "way/759995335", "@id": "way/759995335"}, "geometry": {"type": "LineString", "coordinates": [[471.6581860383435, 0, 48.42419999994647], [436.5664418340964, 0, 34.063919999817784]]}}, {"type": "Feature", "properties": {"highway": "residential", "id": "way/759995336", "@id": "way/759995336"}, "geometry": {"type": "LineString", "coordinates": [[467.07839912089565, 0, -58.788092000040564], [480.7279601308302, 0, -50.22758400006012], [436.5664418340964, 0, 34.063919999817784]]}}, {"type": "Feature", "properties": {"highway": "residential", "id": "way/759995337", "@id": "way/759995337"}, "geometry": {"type": "LineString", "coordinates": [[436.5664418340964, 0, 34.063919999817784], [421.19073019904573, 0, 71.14461199969142], [412.9391315475582, 0, 89.37882800000565], [402.2330065744912, 0, 114.60393999975466], [465.5518034815101, 0, 143.09072799965307]]}}, {"type": "Feature", "properties": {"highway": "residential", "id": "way/759995338", "@id": "way/759995338"}, "geometry": {"type": "LineString", "coordinates": [[456.0330306720158, 0, -60.50242000029996], [448.0707867493768, 0, -38.44992800005514], [434.42122573944226, 0, -16.241588000361986], [421.3104631903423, 0, 7.848059999959958], [411.4324914069583, 0, 30.757715999938995], [404.4380891647936, 0, 52.66549199967912], [390.9481721430182, 0, 80.12813599986941], [362.8707856797216, 0, 127.31668400000899], [343.88312880698845, 0, 146.89787199984906]]}}, {"type": "Feature", "properties": {"highway": "residential", "id": "way/759995343", "@id": "way/759995343"}, "geometry": {"type": "LineString", "coordinates": [[274.0887726191446, 0, 407.39780400000484], [260.46914485738876, 0, 397.6350399998168], [308.6417183632662, 0, 323.5070519996688], [341.8376902048451, 0, 342.8210719999461]]}}, {"type": "Feature", "properties": {"highway": "tertiary", "oneway": "yes", "id": "way/759995344", "@id": "way/759995344"}, "geometry": {"type": "LineString", "coordinates": [[227.77206047907282, 0, 400.8967159999662], [242.00033094670437, 0, 402.4551959999863], [254.0434743235282, 0, 401.38652399975786], [260.46914485738876, 0, 397.6350399998168]]}}, {"type": "Feature", "properties": {"highway": "path", "id": "way/759995345", "@id": "way/759995345"}, "geometry": {"type": "LineString", "coordinates": [[197.9984566381297, 0, 265.6095199997527], [308.6417183632662, 0, 323.5070519996688]]}}, {"type": "Feature", "properties": {"highway": "residential", "id": "way/759995346", "@id": "way/759995346"}, "geometry": {"type": "LineString", "coordinates": [[352.55379292801393, 0, 324.0636519998455], [412.4801550811577, 0, 375.1595319997699], [433.363584316559, 0, 400.7074719997321]]}}, {"type": "Feature", "properties": {"highway": "residential", "id": "way/759995347", "@id": "way/759995347"}, "geometry": {"type": "LineString", "coordinates": [[372.708846466243, 0, 288.7640799998253], [443.79033231017036, 0, 326.7241999996934]]}}, {"type": "Feature", "properties": {"highway": "residential", "id": "way/759995348", "@id": "way/759995348"}, "geometry": {"type": "LineString", "coordinates": [[443.79033231017036, 0, 326.7241999996934], [412.4801550811577, 0, 375.1595319997699]]}}, {"type": "Feature", "properties": {"highway": "residential", "id": "way/759995349", "@id": "way/759995349"}, "geometry": {"type": "LineString", "coordinates": [[443.79033231017036, 0, 326.7241999996934], [451.4632215032519, 0, 331.677939999842], [484.47959385859497, 0, 353.040247999931]]}}, {"type": "Feature", "properties": {"highway": "residential", "id": "way/759995350", "@id": "way/759995350"}, "geometry": {"type": "LineString", "coordinates": [[343.88312880698845, 0, 146.89787199984906], [303.5730217305303, 0, 219.75681199979988], [332.50849463168856, 0, 236.76650799964634]]}}, {"type": "Feature", "properties": {"highway": "residential", "id": "way/759995351", "@id": "way/759995351"}, "geometry": {"type": "LineString", "coordinates": [[375.18332828660823, 0, 166.25641999985575], [332.50849463168856, 0, 236.76650799964634]]}}, {"type": "Feature", "properties": {"highway": "residential", "id": "way/759995353", "@id": "way/759995353"}, "geometry": {"type": "LineString", "coordinates": [[332.50849463168856, 0, 236.76650799964634], [289.6839947380027, 0, 307.45470799993643]]}}, {"type": "Feature", "properties": {"highway": "residential", "id": "way/759995355", "@id": "way/759995355"}, "geometry": {"type": "LineString", "coordinates": [[514.9616178979246, 0, 235.2748200000113], [451.4632215032519, 0, 331.677939999842]]}}, {"type": "Feature", "properties": {"highway": "residential", "id": "way/759995358", "@id": "way/759995358"}, "geometry": {"type": "LineString", "coordinates": [[663.859570347274, 0, -8.081832000318911], [647.1268848110988, 0, 29.889419999679205], [636.15136060726, 0, 49.69324799974814], [617.153725985134, 0, 74.31723199998657], [599.7625089968276, 0, 107.76889199976821], [587.7193656200037, 0, 135.33172399994285], [559.8814451393002, 0, 169.31771999964099]]}}, {"type": "Feature", "properties": {"highway": "residential", "id": "way/759995359", "@id": "way/759995359"}, "geometry": {"type": "LineString", "coordinates": [[604.8411833782474, 0, 200.67656399988152], [559.8814451393002, 0, 169.31771999964099]]}}, {"type": "Feature", "properties": {"highway": "residential", "id": "way/759995360", "@id": "way/759995360"}, "geometry": {"type": "LineString", "coordinates": [[559.8814451393002, 0, 169.31771999964099], [522.4149966071988, 0, 145.7735399997611]]}}, {"type": "Feature", "properties": {"highway": "residential", "id": "way/759995361", "@id": "way/759995361"}, "geometry": {"type": "LineString", "coordinates": [[522.4149966071988, 0, 145.7735399997611], [477.5550358607624, 0, 123.38708799996397]]}}, {"type": "Feature", "properties": {"highway": "residential", "id": "way/759995362", "@id": "way/759995362"}, "geometry": {"type": "LineString", "coordinates": [[476.1481732126734, 0, 216.82909599999377], [522.4149966071988, 0, 145.7735399997611]]}}, {"type": "Feature", "properties": {"highway": "residential", "id": "way/759995363", "@id": "way/759995363"}, "geometry": {"type": "LineString", "coordinates": [[514.9616178979246, 0, 235.2748200000113], [559.8814451393002, 0, 169.31771999964099]]}}, {"type": "Feature", "properties": {"highway": "residential", "id": "way/759995364", "@id": "way/759995364"}, "geometry": {"type": "LineString", "coordinates": [[617.8521684348365, 0, -35.93409600031649], [609.5007922901292, 0, -4.230159999998051], [522.4149966071988, 0, 145.7735399997611]]}}, {"type": "Feature", "properties": {"highway": "tertiary", "oneway": "yes", "id": "way/759995365", "@id": "way/759995365"}, "geometry": {"type": "LineString", "coordinates": [[187.8411078752901, 0, 673.7976959998978], [199.3254972917847, 0, 620.9206959997243], [216.72669203019296, 0, 565.2606959998541]]}}, {"type": "Feature", "properties": {"highway": "tertiary", "id": "way/759995366", "@id": "way/759995366"}, "geometry": {"type": "LineString", "coordinates": [[289.7837722305135, 0, 463.0578039998751], [279.35702423690213, 0, 475.93752799970787], [270.5167383783247, 0, 486.84688799984855]]}}, {"type": "Feature", "properties": {"highway": "tertiary", "id": "way/759995367", "@id": "way/759995367"}, "geometry": {"type": "LineString", "coordinates": [[270.5167383783247, 0, 486.84688799984855], [262.21525098058174, 0, 498.3573759998953]]}}, {"type": "Feature", "properties": {"highway": "tertiary", "id": "way/759995368", "@id": "way/759995368"}, "geometry": {"type": "LineString", "coordinates": [[262.21525098058174, 0, 498.3573759998953], [243.2176163584557, 0, 521.6343879998169]]}}, {"type": "Feature", "properties": {"highway": "tertiary", "id": "way/759995369", "@id": "way/759995369"}, "geometry": {"type": "LineString", "coordinates": [[243.2176163584557, 0, 521.6343879998169], [216.72669203019296, 0, 565.2606959998541]]}}, {"type": "Feature", "properties": {"highway": "residential", "id": "way/759995370", "@id": "way/759995370"}, "geometry": {"type": "LineString", "coordinates": [[64.47621582312193, 0, 468.9688959997423], [116.89931052073611, 0, 503.1775319996693]]}}, {"type": "Feature", "properties": {"highway": "residential", "id": "way/759995371", "@id": "way/759995371"}, "geometry": {"type": "LineString", "coordinates": [[68.52718202912811, 0, 583.9624559996997], [116.89931052073611, 0, 503.1775319996693]]}}, {"type": "Feature", "properties": {"highway": "residential", "id": "way/759995372", "@id": "way/759995372"}, "geometry": {"type": "LineString", "coordinates": [[116.89931052073611, 0, 503.1775319996693], [193.33884772624785, 0, 550.7223040000168], [216.72669203019296, 0, 565.2606959998541]]}}, {"type": "Feature", "properties": {"highway": "service", "id": "way/759995373", "@id": "way/759995373"}, "geometry": {"type": "LineString", "coordinates": [[165.8701039688269, 0, 475.3475319999319], [154.90455751438105, 0, 494.6058919999542], [206.27998853779587, 0, 527.5232159998194], [222.613564103219, 0, 507.4522199997922], [234.91612896071274, 0, 489.2625319999984], [180.85668338180926, 0, 454.4638999998999], [165.8701039688269, 0, 475.3475319999319]]}}, {"type": "Feature", "properties": {"highway": "service", "id": "way/759995374", "@id": "way/759995374"}, "geometry": {"type": "LineString", "coordinates": [[243.2176163584557, 0, 521.6343879998169], [222.613564103219, 0, 507.4522199997922], [165.8701039688269, 0, 475.3475319999319], [142.3226156767227, 0, 459.2840559996739]]}}, {"type": "Feature", "properties": {"highway": "service", "id": "way/759995375", "@id": "way/759995375"}, "geometry": {"type": "LineString", "coordinates": [[116.89931052073611, 0, 503.1775319996693], [142.3226156767227, 0, 459.2840559996739]]}}, {"type": "Feature", "properties": {"highway": "service", "id": "way/759995376", "@id": "way/759995376"}, "geometry": {"type": "LineString", "coordinates": [[142.3226156767227, 0, 459.2840559996739], [165.60070473805516, 0, 419.142064000015], [212.4362598408847, 0, 448.3079039999392], [270.5167383783247, 0, 486.84688799984855]]}}, {"type": "Feature", "properties": {"highway": "service", "id": "way/759995377", "@id": "way/759995377"}, "geometry": {"type": "LineString", "coordinates": [[212.4362598408847, 0, 448.3079039999392], [226.89401854242544, 0, 432.7898959997277], [238.91720642046351, 0, 420.4667719996762]]}}, {"type": "Feature", "properties": {"highway": "service", "id": "way/759995378", "@id": "way/759995378"}, "geometry": {"type": "LineString", "coordinates": [[279.35702423690213, 0, 475.93752799970787], [226.89401854242544, 0, 432.7898959997277]]}}, {"type": "Feature", "properties": {"highway": "path", "id": "way/759995379", "@id": "way/759995379"}, "geometry": {"type": "LineString", "coordinates": [[165.60070473805516, 0, 419.142064000015], [118.54563915141826, 0, 387.5049199996862]]}}, {"type": "Feature", "properties": {"highway": "residential", "id": "way/759995380", "@id": "way/759995380"}, "geometry": {"type": "LineString", "coordinates": [[193.33884772624785, 0, 550.7223040000168], [105.7641423287383, 0, 628.8912079999288]]}}, {"type": "Feature", "properties": {"highway": "residential", "id": "way/759995388", "@id": "way/759995388"}, "geometry": {"type": "LineString", "coordinates": [[-4.799297401964154, 0, 674.844103999866], [20.354608523959662, 0, 698.1322479999177]]}}, {"type": "Feature", "properties": {"highway": "residential", "id": "way/759995389", "@id": "way/759995389"}, "geometry": {"type": "LineString", "coordinates": [[105.7641423287383, 0, 628.8912079999288], [92.88286801283856, 0, 639.2551000000229]]}}, {"type": "Feature", "properties": {"highway": "residential", "id": "way/759995390", "@id": "way/759995390"}, "geometry": {"type": "LineString", "coordinates": [[92.88286801283856, 0, 639.2551000000229], [54.33882255835911, 0, 670.5360199997483], [20.354608523959662, 0, 698.1322479999177]]}}, {"type": "Feature", "properties": {"highway": "residential", "id": "way/759995391", "@id": "way/759995391"}, "geometry": {"type": "LineString", "coordinates": [[122.15758438910075, 0, 647.1254239998475], [-66.3620104363972, 0, 852.8113879997372]]}}, {"type": "Feature", "properties": {"highway": "residential", "id": "way/759995393", "@id": "way/759995393"}, "geometry": {"type": "LineString", "coordinates": [[20.354608523959662, 0, 698.1322479999177], [-73.58590091247113, 0, 780.2864079997341]]}}, {"type": "Feature", "properties": {"highway": "path", "id": "way/759995411", "@id": "way/759995411"}, "geometry": {"type": "LineString", "coordinates": [[68.52718202912811, 0, 583.9624559996997], [53.07164840035238, 0, 588.6044999997653]]}}, {"type": "Feature", "properties": {"highway": "path", "id": "way/759995412", "@id": "way/759995412"}, "geometry": {"type": "LineString", "coordinates": [[53.07164840035238, 0, 588.6044999997653], [26.840145553468503, 0, 596.6418039999593], [2.2250380883791956, 0, 593.9589919998513], [-3.661833984646853, 0, 607.3396560000012]]}}, {"type": "Feature", "properties": {"highway": "path", "id": "way/759995415", "@id": "way/759995415"}, "geometry": {"type": "LineString", "coordinates": [[-3.661833984646853, 0, 607.3396560000012], [23.36788880515936, 0, 622.3233279999006], [37.54627052653549, 0, 646.412975999827]]}}, {"type": "Feature", "properties": {"highway": "path", "id": "way/759995416", "@id": "way/759995416"}, "geometry": {"type": "LineString", "coordinates": [[-4.799297401964154, 0, 674.844103999866], [37.54627052653549, 0, 646.412975999827]]}}, {"type": "Feature", "properties": {"highway": "path", "id": "way/759995417", "@id": "way/759995417"}, "geometry": {"type": "LineString", "coordinates": [[37.54627052653549, 0, 646.412975999827], [54.33882255835911, 0, 670.5360199997483]]}}, {"type": "Feature", "properties": {"highway": "path", "id": "way/759995418", "@id": "way/759995418"}, "geometry": {"type": "LineString", "coordinates": [[37.54627052653549, 0, 646.412975999827], [79.56257272932407, 0, 619.918815999881]]}}, {"type": "Feature", "properties": {"highway": "path", "id": "way/759995419", "@id": "way/759995419"}, "geometry": {"type": "LineString", "coordinates": [[3.472256748309143, 0, 545.7351679998735], [53.07164840035238, 0, 588.6044999997653]]}}, {"type": "Feature", "properties": {"highway": "path", "id": "way/759995420", "@id": "way/759995420"}, "geometry": {"type": "LineString", "coordinates": [[53.07164840035238, 0, 588.6044999997653], [79.56257272932407, 0, 619.918815999881]]}}, {"type": "Feature", "properties": {"highway": "path", "id": "way/759995421", "@id": "way/759995421"}, "geometry": {"type": "LineString", "coordinates": [[79.56257272932407, 0, 619.918815999881], [92.88286801283856, 0, 639.2551000000229]]}}, {"type": "Feature", "properties": {"highway": "residential", "id": "way/760015363", "@id": "way/760015363"}, "geometry": {"type": "LineString", "coordinates": [[647.0969515636291, 0, 473.6777319997974], [710.6252812057714, 0, 531.0743239997918]]}}, {"type": "Feature", "properties": {"highway": "residential", "id": "way/760015364", "@id": "way/760015364"}, "geometry": {"type": "LineString", "coordinates": [[710.6252812057714, 0, 531.0743239997918], [726.4499915578297, 0, 545.4568679997851], [737.9643142225029, 0, 555.9988719999832]]}}, {"type": "Feature", "properties": {"highway": "residential", "id": "way/760015366", "@id": "way/760015366"}, "geometry": {"type": "LineString", "coordinates": [[491.5039293489383, 0, 556.5220759997696], [425.65078412590594, 0, 639.7783039998093], [420.60204299195584, 0, 647.2256119998319]]}}, {"type": "Feature", "properties": {"highway": "residential", "id": "way/760015367", "@id": "way/760015367"}, "geometry": {"type": "LineString", "coordinates": [[491.5039293489383, 0, 556.5220759997696], [546.3416393712694, 0, 603.6326999997896]]}}, {"type": "Feature", "properties": {"highway": "residential", "id": "way/760015368", "@id": "way/760015368"}, "geometry": {"type": "LineString", "coordinates": [[546.3416393712694, 0, 603.6326999997896], [468.05621855005387, 0, 690.6181479999055]]}}, {"type": "Feature", "properties": {"highway": "residential", "id": "way/760015369", "@id": "way/760015369"}, "geometry": {"type": "LineString", "coordinates": [[546.3416393712694, 0, 603.6326999997896], [578.6695470270117, 0, 622.4457799997497]]}}, {"type": "Feature", "properties": {"highway": "residential", "id": "way/760015370", "@id": "way/760015370"}, "geometry": {"type": "LineString", "coordinates": [[578.6695470270117, 0, 622.4457799997497], [511.28980616388486, 0, 723.4352839997864]]}}, {"type": "Feature", "properties": {"highway": "residential", "id": "way/760015371", "@id": "way/760015371"}, "geometry": {"type": "LineString", "coordinates": [[578.6695470270117, 0, 622.4457799997497], [601.8877695926959, 0, 620.6869239997609]]}}, {"type": "Feature", "properties": {"highway": "residential", "id": "way/760015372", "@id": "way/760015372"}, "geometry": {"type": "LineString", "coordinates": [[601.8877695926959, 0, 620.6869239997609], [619.7379630481117, 0, 633.4219319998799], [635.3331851669698, 0, 644.565063999984], [662.5524851924048, 0, 666.8290639999321]]}}, {"type": "Feature", "properties": {"highway": "service", "id": "way/760015373", "@id": "way/760015373"}, "geometry": {"type": "LineString", "coordinates": [[601.8877695926959, 0, 620.6869239997609], [643.9140495441684, 0, 572.4853639996478], [655.0791509843449, 0, 553.9728479996406], [668.2996687753486, 0, 523.1260759998474], [629.8653785634817, 0, 489.8970559998992]]}}, {"type": "Feature", "properties": {"highway": "service", "id": "way/760015374", "@id": "way/760015374"}, "geometry": {"type": "LineString", "coordinates": [[597.068516691946, 0, 509.5005079999994], [643.9140495441684, 0, 572.4853639996478]]}}, {"type": "Feature", "properties": {"highway": "service", "id": "way/760015375", "@id": "way/760015375"}, "geometry": {"type": "LineString", "coordinates": [[613.4619587530175, 0, 499.7043479998166], [655.0791509843449, 0, 553.9728479996406]]}}, {"type": "Feature", "properties": {"highway": "service", "id": "way/760015376", "@id": "way/760015376"}, "geometry": {"type": "LineString", "coordinates": [[668.2996687753486, 0, 523.1260759998474], [686.2296842251984, 0, 541.6385919998545], [696.806098457576, 0, 552.5034239998704], [712.6806975565986, 0, 562.4999600000218], [726.4499915578297, 0, 545.4568679997851]]}}, {"type": "Feature", "properties": {"highway": "service", "id": "way/760015377", "@id": "way/760015377"}, "geometry": {"type": "LineString", "coordinates": [[686.2296842251984, 0, 541.6385919998545], [665.3662104885829, 0, 567.4982279998999]]}}, {"type": "Feature", "properties": {"highway": "service", "id": "way/760015378", "@id": "way/760015378"}, "geometry": {"type": "LineString", "coordinates": [[655.0791509843449, 0, 553.9728479996406], [665.3662104885829, 0, 567.4982279998999], [619.7379630481117, 0, 633.4219319998799]]}}, {"type": "Feature", "properties": {"highway": "service", "id": "way/760015379", "@id": "way/760015379"}, "geometry": {"type": "LineString", "coordinates": [[635.3331851669698, 0, 644.565063999984], [670.0657303973272, 0, 591.2984440000034]]}}, {"type": "Feature", "properties": {"highway": "service", "id": "way/760015380", "@id": "way/760015380"}, "geometry": {"type": "LineString", "coordinates": [[670.0657303973272, 0, 591.2984440000034], [683.8749353954208, 0, 603.0538359997481], [696.9457869476582, 0, 616.9688359998146]]}}, {"type": "Feature", "properties": {"highway": "service", "id": "way/760015381", "@id": "way/760015381"}, "geometry": {"type": "LineString", "coordinates": [[712.6806975565986, 0, 562.4999600000218], [683.8749353954208, 0, 603.0538359997481]]}}, {"type": "Feature", "properties": {"highway": "service", "id": "way/760015382", "@id": "way/760015382"}, "geometry": {"type": "LineString", "coordinates": [[696.806098457576, 0, 552.5034239998704], [670.0657303973272, 0, 591.2984440000034]]}}, {"type": "Feature", "properties": {"highway": "service", "id": "way/760015383", "@id": "way/760015383"}, "geometry": {"type": "LineString", "coordinates": [[710.6252812057714, 0, 531.0743239997918], [717.1507292321428, 0, 524.3394639997896]]}}, {"type": "Feature", "properties": {"highway": "service", "id": "way/760015384", "@id": "way/760015384"}, "geometry": {"type": "LineString", "coordinates": [[859.7227886408515, 0, 772.3938199996494], [845.733984155104, 0, 762.0521919998155], [795.0669733307847, 0, 724.5930119998691], [764.5051272970211, 0, 701.9950519999732], [691.9569123093564, 0, 648.3610759996544]]}}, {"type": "Feature", "properties": {"highway": "trunk", "layer": "-1", "name": "\u0637\u0631\u064a\u0642 \u0627\u0644\u0645\u0644\u0643 \u0639\u0628\u062f \u0627\u0644\u0639\u0632\u064a\u0632", "name:en": "King Abdulaziz Road", "oneway": "yes", "source": "Yahoo", "id": "way/760199870", "@id": "way/760199870"}, "geometry": {"type": "LineString", "coordinates": [[-2489.0393567095366, 0, 4148.484515999873], [-2472.6359368997814, 0, 4146.814715999739], [-2454.0473899978006, 0, 4137.085347999941], [-2430.5697459507373, 0, 4124.795619999884], [-2325.5938458148194, 0, 4068.1003439997803], [-2259.9003445799462, 0, 4032.6115279999217], [-2240.164356511255, 0, 4021.9582040000046], [-2176.795670857981, 0, 3987.7273039998177], [-2062.2910201631757, 0, 3925.8779119999917], [-1995.0210345426617, 0, 3889.543063999738], [-1934.3064301966974, 0, 3849.1450359998553], [-1918.7012303284464, 0, 3837.389643999715], [-1866.5176016134253, 0, 3800.665175999654], [-1834.5788261804603, 0, 3771.488203999995], [-1808.1477683478458, 0, 3745.9179999997727], [-1776.8176356200474, 0, 3710.573900000023], [-1747.3633197561314, 0, 3669.7973839996725], [-1728.1561523995908, 0, 3641.811535999696], [-1671.312914772688, 0, 3531.5713399999186], [-1665.9448856624197, 0, 3520.2612279998402], [-1566.516614123715, 0, 3318.8276879998134], [-1522.624495057753, 0, 3231.4748839997546], [-1514.742073129548, 0, 3215.8010279996997], [-1468.76460446458, 0, 3124.2959879997625], [-1438.6717126473188, 0, 3064.9624279996756], [-1402.0533728029773, 0, 2992.760275999886], [-1386.138862707801, 0, 2959.8095559996304], [-1364.8762789997243, 0, 2918.8103999998416], [-1328.8665818619672, 0, 2854.411779999887], [-1267.7927785414042, 0, 2725.4030319998787], [-1249.8527853428704, 0, 2687.509704], [-1188.4297607985197, 0, 2566.0150560000043], [-1183.2113979270177, 0, 2555.6956919996396], [-1166.7780448690837, 0, 2533.7433879997743], [-1146.2837478550418, 0, 2506.369799999834], [-1080.2809363925342, 0, 2426.0190239997355], [-1053.670279072975, 0, 2393.636035999787], [-1037.4464587494556, 0, 2369.468463999741], [-957.9038415189171, 0, 2271.9298799996923], [-883.7092979005704, 0, 2174.981291999815], [-848.5776426994607, 0, 2135.2734479996925], [-801.6622656021972, 0, 2074.759895999658], [-748.2413959766391, 0, 2004.773011999654], [-694.7905931036113, 0, 1930.088423999725], [-651.2676507609318, 0, 1866.0682919998428], [-595.1428110818082, 0, 1778.8490719997633], [-547.698613273103, 0, 1711.222171999654], [-527.623381729308, 0, 1678.9393719996897], [-501.34199013545975, 0, 1639.9328439998533], [-469.9719464107988, 0, 1592.9780679996773], [-435.96777687761363, 0, 1540.7467239999303], [-422.35812686454165, 0, 1520.018939999742], [-396.20644601138287, 0, 1483.4169239999253], [-389.4215765036326, 0, 1474.4333999997475], [-342.0871339368311, 0, 1416.3466239999927], [-275.8049454948679, 0, 1328.4594840000177], [-228.2909034411216, 0, 1260.6656039999343], [-213.18459103684265, 0, 1239.8932920000168], [-170.8988896039913, 0, 1173.0678959997822], [-166.83794564859224, 0, 1166.6558639999932], [-143.38025710031494, 0, 1134.2840079997793], [-132.4745771408084, 0, 1119.2446760000203], [-87.97381536897072, 0, 1053.7328559997122], [-71.21119658461676, 0, 1029.476227999812], [-13.589694514286215, 0, 944.5724639998979], [169.54191570215767, 0, 696.6962199997466], [187.8411078752901, 0, 673.7976959998978], [329.84443557498565, 0, 502.58753599989336], [337.5771912644244, 0, 493.73759599969446], [433.363584316559, 0, 400.7074719997321], [484.47959385859497, 0, 353.040247999931], [521.2475999417028, 0, 314.3899439999072], [544.0068460409865, 0, 286.62673599976387], [561.6275512624932, 0, 263.72821199991495], [580.9644293604321, 0, 238.60328799975477], [604.8411833782474, 0, 200.67656399988152], [651.1179845214566, 0, 123.03086399975598], [700.2284664596297, 0, 34.5648599997395], [719.20614558297, 0, -1.5807440002802764], [732.8257733454349, 0, -32.037896000266244]]}}, {"type": "Feature", "properties": {"highway": "primary", "name": "\u0637\u0631\u064a\u0642 \u0627\u0644\u0645\u0644\u0643 \u0641\u064a\u0635\u0644", "oneway": "yes", "id": "way/761949872", "@id": "way/761949872"}, "geometry": {"type": "LineString", "coordinates": [[976.4424996746427, 0, 1081.4070080000013], [957.7641530295439, 0, 1054.3339840000137], [760.3044948522487, 0, 913.3917319997613], [716.9112632495496, 0, 878.2925359997098], [592.7082402583055, 0, 790.9397319996513], [584.0974426329284, 0, 785.8524079999189], [547.1598148122686, 0, 759.8146599997697], [506.02155454612733, 0, 730.4929720000017], [482.1348227789192, 0, 711.7244199997709], [463.5263203788615, 0, 696.9188599999756], [446.6339908538181, 0, 680.1540679998271], [426.21951583421014, 0, 655.0180119999324], [420.60204299195584, 0, 647.2256119998319], [409.14758682293086, 0, 631.3179839998132], [399.7984357509886, 0, 618.6497679996837], [391.4470596069902, 0, 605.1577839998149], [361.3741232878057, 0, 543.6980119997963], [335.1825314377843, 0, 510.66936799981676], [329.84443557498565, 0, 502.58753599989336], [289.7837722305135, 0, 463.0578039998751], [260.7185885886658, 0, 436.98665999973105], [238.91720642046351, 0, 420.4667719996762], [148.49884247859728, 0, 356.1572079999712], [143.9489888086191, 0, 349.27763199985986]]}}, {"type": "Feature", "properties": {"highway": "residential", "id": "way/761949873", "@id": "way/761949873"}, "geometry": {"type": "LineString", "coordinates": [[391.4470596069902, 0, 605.1577839998149], [263.13320391409167, 0, 774.2639959997525], [65.52387949732129, 0, 1051.7624920000203], [35.56069842074941, 0, 1097.9157639999262]]}}, {"type": "Feature", "properties": {"highway": "tertiary", "name": "\u0634\u0627\u0631\u0639 \u0627\u0644\u062a\u0639\u0644\u064a\u0645", "oneway": "yes", "id": "way/964205533", "@id": "way/964205533"}, "geometry": {"type": "LineString", "coordinates": [[247.65771478653016, 0, 1251.581891999772], [274.5078380886826, 0, 1212.0855559997485], [291.5897448500637, 0, 1186.78251999988], [338.50512194661826, 0, 1115.159231999736], [385.79965351655727, 0, 1054.1781359997744], [461.79019200435243, 0, 959.2667039999743], [584.0974426329284, 0, 785.8524079999189], [589.9444037090918, 0, 778.3939679997662], [662.5524851924048, 0, 666.8290639999321], [696.9457869476582, 0, 616.9688359998146], [737.9643142225029, 0, 555.9988719999832], [769.3443356965568, 0, 511.9606799998786], [956.7963113497785, 0, 244.54777600001222]]}}, {"type": "Feature", "properties": {"highway": "residential", "surface": "asphalt", "id": "way/964252021", "@id": "way/964252021"}, "geometry": {"type": "LineString", "coordinates": [[-94.00037593207907, 0, 433.535739999743], [-71.08148584392733, 0, 454.35257999978546], [-26.321302590710776, 0, 495.0066439998916], [14.397892205892461, 0, 531.9760159996508]]}}, {"type": "Feature", "properties": {"highway": "tertiary", "name": "\u0634\u0627\u0631\u0639 \u0627\u0644\u0635\u0628\u0627\u062e", "oneway": "yes", "id": "way/964252028", "@id": "way/964252028"}, "geometry": {"type": "LineString", "coordinates": [[40.848905537292666, 0, -17.388184000314624], [0.9977749279439575, 0, 29.878287999944604], [-35.570676170142285, 0, 71.82366399971713], [-107.8295364289584, 0, 166.73509599991277], [-120.26181202714157, 0, 178.13426399984507]]}}, {"type": "Feature", "properties": {"highway": "tertiary", "name": "\u0634\u0627\u0631\u0639 \u0627\u0644\u0645\u0633\u062a\u0648\u062f\u0639\u0627\u062a", "oneway": "yes", "id": "way/964252029", "@id": "way/964252029"}, "geometry": {"type": "LineString", "coordinates": [[-120.26181202714157, 0, 178.13426399984507], [-112.15987961442023, 0, 158.4083599998958], [-44.25131804056066, 0, 63.67503999980414], [-22.1106923965455, 0, 36.03428399990534], [1.406862648089037, 0, 10.375023999828699], [13.060873802844577, 0, -3.6846920003469563], [36.73807283492924, 0, -29.522064000132104]]}}, {"type": "Feature", "properties": {"highway": "tertiary", "id": "way/964252030", "@id": "way/964252030"}, "geometry": {"type": "LineString", "coordinates": [[290.4223481845678, 0, 123.04199599988607], [296.877951965898, 0, 114.6929960000044], [336.7191048265628, 0, 50.55041199987784], [369.15676772349985, 0, -1.4360280001710635], [388.4238015756887, 0, -31.971104000276682], [408.08994539933866, 0, -61.348452000299574]]}}, {"type": "Feature", "properties": {"highway": "primary", "name": "\u0637\u0631\u064a\u0642 \u0627\u0644\u0645\u0644\u0643 \u0641\u064a\u0635\u0644", "oneway": "yes", "source": "Yahoo", "id": "way/964260689", "@id": "way/964260689"}, "geometry": {"type": "LineString", "coordinates": [[-11173.712237774162, 0, -2164.2055160000486], [-11141.035108894632, 0, -2166.587764000204], [-11115.013138782162, 0, -2166.1536160002715], [-11099.248294925752, 0, -2166.220408000261], [-11042.724345275168, 0, -2161.556100000331], [-11018.37863704156, 0, -2155.5559520002143], [-10993.40433060258, 0, -2146.616956000161], [-10972.740411851695, 0, -2136.0192920001036], [-10950.849229939666, 0, -2123.1284360001405], [-10927.7208071171, 0, -2108.478724000189], [-10898.575801480818, 0, -2089.186968000172], [-10860.710242977964, 0, -2072.6114200002576], [-10835.855669530281, 0, -2063.8060080001837], [-10818.394608296934, 0, -2060.165844000357], [-10790.985731035162, 0, -2056.714924000369], [-10764.484828957506, 0, -2054.9560679999845], [-10731.937410817956, 0, -2056.047004000078], [-10686.51869611261, 0, -2059.67603600017], [-10643.853840207083, 0, -2062.414508000137], [-10576.454143845878, 0, -2072.4221760000237], [-10494.566755535665, 0, -2092.047891999988], [-10327.0004341899, 0, -2146.995444000234], [-10088.173027513263, 0, -2231.8212840000283], [-9789.7385466598, 0, -2341.1041280000873], [-9660.23733880262, 0, -2387.9921120002737], [-9601.23890733238, 0, -2409.844228000154], [-9466.828646831333, 0, -2457.589376000075], [-9136.694856527498, 0, -2574.230472000302], [-9055.695487902614, 0, -2606.134784000194], [-8969.208357176167, 0, -2629.834812000313], [-8913.332961229029, 0, -2644.7628240003532], [-8846.082931106592, 0, -2654.436532000291], [-8794.228568117991, 0, -2658.2993360003466], [-8736.14808958126, 0, -2658.4440520000603], [-8650.219712813723, 0, -2651.208252000137], [-8589.355442228285, 0, -2639.7645560000797], [-8527.563240960651, 0, -2622.621276000254], [-8478.00376030547, 0, -2605.8676160002356], [-8443.800035785845, 0, -2592.8431760002936], [-8397.623012135857, 0, -2568.25258800005], [-8356.883861840468, 0, -2547.380088000148], [-8319.128058578808, 0, -2524.214396000341], [-8281.64165454792, 0, -2498.9670200003316], [-8249.074280910294, 0, -2473.8643600000364], [-8217.883836672578, 0, -2445.1326680000443], [-8138.3212639439635, 0, -2363.2679400000507], [-8005.5174210767345, 0, -2214.5110240002286], [-7963.8702955972285, 0, -2162.1127000001125], [-7957.963468026126, 0, -2154.465016000121], [-7826.915709031484, 0, -2006.487340000309], [-7769.852960920064, 0, -1946.0294480001337], [-7741.216820497148, 0, -1920.0139640002446], [-7711.1937729249275, 0, -1896.43638800037], [-7692.4954707817515, 0, -1882.922140000241], [-7666.623166908048, 0, -1867.8494120000917], [-7630.453825781423, 0, -1848.2459599999916], [-7591.700247592529, 0, -1831.2696600001398], [-7537.39135828164, 0, -1813.3360080001742], [-7515.649842609086, 0, -1807.2356720000728], [-7476.906242168876, 0, -1798.2521480002904], [-7436.925400818838, 0, -1792.5636960002564], [-7402.352499576639, 0, -1790.4597480001898], [-7349.340717671936, 0, -1790.9940840001063], [-7292.367769304343, 0, -1795.2799040003592], [-7258.303733274801, 0, -1801.4581640001848], [-7219.939287307975, 0, -1810.82017600004], [-7181.185709119081, 0, -1823.1989600003465], [-7147.840071037318, 0, -1837.5258440000848], [-7112.409083357258, 0, -1853.5113960002232], [-7085.209738830608, 0, -1869.1852520002785], [-7031.948513193918, 0, -1909.6278080002858], [-6785.9969935337185, 0, -2099.9516120002036], [-6638.336281994198, 0, -2210.080488000262], [-6559.362396471964, 0, -2272.464216000004], [-6521.546726715365, 0, -2306.5170040000876], [-6484.878498124768, 0, -2328.1576120002646], [-6445.037345264812, 0, -2354.7296960003305], [-6410.304800033746, 0, -2372.652216000166], [-6370.593357914479, 0, -2388.9049360002628], [-6344.431699311927, 0, -2397.0758240000405], [-6326.521639360863, 0, -2403.6437040000687], [-6270.077511705422, 0, -2417.4585160001507], [-6257.565414112804, 0, -2419.762840000186], [-6250.820455601917, 0, -2421.221132000222], [-6232.660951919575, 0, -2423.4141360001427], [-6216.077932622166, 0, -2425.406764000095], [-6190.185673250387, 0, -2427.922596000229], [-6143.050785669316, 0, -2429.069192000182], [-6094.94805640848, 0, -2424.9614840000327], [-6027.19913882207, 0, -2413.9519360003032], [-5988.146228154935, 0, -2403.45446000023], [-5948.484674781924, 0, -2388.9272000001274], [-5898.665772645364, 0, -2366.5296160002003], [-5831.286031782946, 0, -2325.3523480003078], [-5551.280453842597, 0, -2128.405004000107], [-5492.202200377922, 0, -2089.3316840002813], [-5258.702911814691, 0, -1929.1199400002715], [-4962.942467767325, 0, -1725.3041520000897], [-4917.3142203268535, 0, -1693.856251999995], [-4862.087378082454, 0, -1653.5918080000915], [-4818.215214514569, 0, -1621.0307080000389], [-4790.546915771418, 0, -1597.965204000216], [-4760.164669225308, 0, -1572.6510360002173], [-4708.459972476182, 0, -1520.9206319999967], [-4685.131994667885, 0, -1493.2130840001082], [-4660.476976205933, 0, -1463.9359240000697], [-4621.603665025743, 0, -1410.7583600003388], [-4582.710398346766, 0, -1349.0536840002267], [-4545.932414514975, 0, -1284.0650680001004], [-4492.411767396906, 0, -1161.5351440002662], [-4470.440763490443, 0, -1108.8028600002021], [-4424.762627303716, 0, -999.20832000006], [-4392.255120161738, 0, -927.3178640003533], [-4378.964758125693, 0, -900.3561600000847], [-4348.1035796136875, 0, -849.3827320000094], [-4309.749111396255, 0, -800.791552000089], [-4280.713861001877, 0, -769.076484000036], [-4234.287393619901, 0, -730.348256000288], [-4196.262191127471, 0, -703.8540960003418], [-4139.319176008057, 0, -669.1222560002329], [-4092.9026863747654, 0, -648.071644000227], [-4051.205672149004, 0, -632.653824], [-4043.243428227074, 0, -630.6611960000477], [-4008.480949748538, 0, -621.967104000088], [-3946.449282497603, 0, -611.5920800002594], [-3876.405482578482, 0, -608.029840000157], [-3507.198826108018, 0, -593.869935999997], [-3024.844492845291, 0, -576.370432000359], [-3022.3999442731047, 0, -576.2925080002392], [-2628.159114868722, 0, -564.0473080003073], [-2541.3826294127166, 0, -561.6539280000222], [-2529.3793970334646, 0, -560.7522360001632], [-2444.4388174444794, 0, -557.5350880001386], [-2348.2134034240207, 0, -556.5888680001547], [-2312.024106799319, 0, -553.4385120001197], [-2170.978643029996, 0, -547.6832680000963], [-2086.177751931093, 0, -546.5812000002686], [-1913.8520441802268, 0, -542.7963200003328], [-1884.4176838150966, 0, -541.7387800002343], [-1642.2577088802332, 0, -534.7033560002792], [-1484.2600490902184, 0, -530.5845160000001], [-1431.6573549056593, 0, -528.4694360001988], [-1380.1921241391267, 0, -522.3691000000975], [-1332.7678818284983, 0, -514.7325480002364], [-1280.3348093822, 0, -503.05508000021575], [-1194.5361433553533, 0, -480.2678760000857], [-1114.0955286900908, 0, -456.16709600002923], [-1036.3688618277865, 0, -418.9973480003013], [-978.238494544091, 0, -381.8609960001727], [-947.4272047790504, 0, -362.5915040000203], [-766.660321141068, 0, -249.54604400028572], [-726.1506590795883, 0, -226.34695600008826], [-712.560964565302, 0, -217.66399600025878], [-679.1454822384978, 0, -193.83038400016048], [-669.1078664669548, 0, -186.98420400004395], [-603.464253978337, 0, -146.57504400003134], [-558.5144934887827, 0, -114.97129600009274], [-267.4934803477321, 0, 72.74761999983639], [-127.15643677679549, 0, 167.29169599969396], [-120.26181202714157, 0, 178.13426399984507], [-76.91846917069797, 0, 206.7657679998527], [-17.36128374083675, 0, 246.10625599963683], [37.54627052653549, 0, 282.3743119999011], [86.88624069790882, 0, 312.9873119997309], [143.9489888086191, 0, 349.27763199985986], [154.26598156032676, 0, 351.1255439997029], [227.77206047907282, 0, 400.8967159999662], [260.0201461396722, 0, 421.95845999970675], [298.0253931333171, 0, 454.12993999995206], [337.5771912644244, 0, 493.73759599969446], [344.22237228209235, 0, 501.48546799967005], [370.9228293454786, 0, 537.9872959998978], [398.61108358741586, 0, 601.2281879997698], [405.4358640920286, 0, 610.4232199996511], [414.7850151639709, 0, 624.0710519997593], [425.65078412590594, 0, 639.7783039998093], [431.65738919022857, 0, 647.960323999717], [450.9044675443406, 0, 674.075995999986], [468.05621855005387, 0, 690.6181479999055], [486.4052994687328, 0, 705.6463479999298], [511.28980616388486, 0, 723.4352839997864], [552.597688167578, 0, 752.9573479999185], [589.9444037090918, 0, 778.3939679997662], [598.1062026167525, 0, 783.7150639998574], [721.451139170135, 0, 870.1995719996563], [767.7778290595996, 0, 902.8719919998234], [963.1022488923425, 0, 1044.5044279998363], [994.9711800809754, 0, 1053.7551199999725]]}}, {"type": "Feature", "properties": {"highway": "primary", "name": "\u0637\u0631\u064a\u0642 \u0639\u0645\u0631 \u0628\u0646 \u0639\u0628\u062f \u0627\u0644\u0639\u0632\u064a\u0632", "name:ar": "\u0637\u0631\u064a\u0642 \u0639\u0645\u0631 \u0628\u0646 \u0639\u0628\u062f \u0627\u0644\u0639\u0632\u064a\u0632", "name:etymology": "\u0639\u0645\u0631 \u0628\u0646 \u0639\u0628\u062f \u0627\u0644\u0639\u0632\u064a\u0632", "name:etymology:wikidata": "Q298403", "name:etymology:wikipedia": "ar:\u0639\u0645\u0631 \u0628\u0646 \u0639\u0628\u062f \u0627\u0644\u0639\u0632\u064a\u0632", "oneway": "yes", "id": "way/1017378937", "@id": "way/1017378937"}, "geometry": {"type": "LineString", "coordinates": [[587.3402111480373, 0, 247.41983199995886], [602.2369908171927, 0, 250.26962399964532], [633.5970567924608, 0, 258.44051199981845], [663.620104364681, 0, 263.6057599996704], [693.2141087179702, 0, 271.5540080000102], [713.6285837375782, 0, 273.69135199967616], [726.7293685372853, 0, 271.4983479997552], [739.9299308295033, 0, 266.1883839997941], [749.5285256334315, 0, 261.2235119999109], [800.9438676544179, 0, 249.7798159998537], [858.1163710070318, 0, 244.45871999976248], [889.0673492621548, 0, 240.1061079999154], [959.9492801210605, 0, 232.52521599991368], [997.8347941226999, 0, 227.09279999970803], [1049.8088901033066, 0, 220.90340799975252], [1093.740920166131, 0, 221.14831199984607], [1175.9076854565096, 0, 229.85353599993573], [1229.5181323176967, 0, 240.47346399985798], [1281.0033185837242, 0, 252.67413599966503], [1337.357646496048, 0, 264.7523560000185], [1445.8257588783517, 0, 286.0478719997225]]}}, {"type": "Feature", "properties": {"highway": "primary", "name": "\u0637\u0631\u064a\u0642 \u0639\u0645\u0631 \u0628\u0646 \u0639\u0628\u062f \u0627\u0644\u0639\u0632\u064a\u0632", "name:ar": "\u0637\u0631\u064a\u0642 \u0639\u0645\u0631 \u0628\u0646 \u0639\u0628\u062f \u0627\u0644\u0639\u0632\u064a\u0632", "name:etymology": "\u0639\u0645\u0631 \u0628\u0646 \u0639\u0628\u062f \u0627\u0644\u0639\u0632\u064a\u0632", "name:etymology:wikidata": "Q298403", "name:etymology:wikipedia": "ar:\u0639\u0645\u0631 \u0628\u0646 \u0639\u0628\u062f \u0627\u0644\u0639\u0632\u064a\u0632", "oneway": "yes", "id": "way/1017378939", "@id": "way/1017378939"}, "geometry": {"type": "LineString", "coordinates": [[1445.636181642014, 0, 294.98686799977565], [1337.7467787174073, 0, 274.38153599983195], [1231.3839714328951, 0, 251.07112799991555], [1182.4131779848044, 0, 241.51987199982628], [1147.3613447774198, 0, 235.9538719996415], [1100.2264571963487, 0, 232.55861199990846], [1057.9607112615743, 0, 233.5493600000173], [1031.6094754233939, 0, 236.52160399994827], [978.82718175189, 0, 241.75364399978974], [956.7963113497785, 0, 244.54777600001222], [867.2959003414222, 0, 254.84487599972127], [814.2242519410698, 0, 260.1771039999426], [773.9041671152188, 0, 266.533475999872], [736.9964725427376, 0, 278.789807999934], [721.8702046396729, 0, 283.52090799985376], [705.2073633485387, 0, 284.7676919997907], [670.8639503395406, 0, 276.7860479998517], [635.5826288982469, 0, 268.80440399991255], [595.4920323063051, 0, 257.5944799998189], [587.3402111480373, 0, 247.41983199995886]]}}, {"type": "Feature", "properties": {"highway": "service", "id": "way/1103460175", "@id": "way/1103460175"}, "geometry": {"type": "LineString", "coordinates": [[763.9363955887169, 0, 462.267431999735], [771.1103973185354, 0, 466.7313639996965], [772.9862141824178, 0, 467.48833999984186], [775.5305402478241, 0, 466.92060799993055], [804.9649006122454, 0, 428.1701159999224], [790.0082544474417, 0, 419.9992279997492]]}}, {"type": "Feature", "properties": {"highway": "service", "id": "way/1103460176", "@id": "way/1103460176"}, "geometry": {"type": "LineString", "coordinates": [[790.0082544474417, 0, 411.71701999985714], [780.609214629244, 0, 413.0305959997837], [775.5305402478241, 0, 410.4034439999306], [747.1238880581075, 0, 389.8982999999713], [746.3755568621496, 0, 383.88701999972426], [747.8821970027494, 0, 380.12440399965317], [750.326745575645, 0, 375.4155679999935], [768.7556484887579, 0, 340.4388239997911]]}}, {"type": "Feature", "properties": {"highway": "service", "id": "way/1103460177", "@id": "way/1103460177"}, "geometry": {"type": "LineString", "coordinates": [[732.2670193858146, 0, 417.92867599967735], [724.7437964314993, 0, 427.5133279997614], [723.8058879992036, 0, 431.2759439998325], [726.0608593357614, 0, 435.03855999990367], [756.6127276194231, 0, 457.1133160000131], [763.9363955887169, 0, 462.267431999735]]}}, {"type": "Feature", "properties": {"highway": "service", "id": "way/1103460178", "@id": "way/1103460178"}, "geometry": {"type": "LineString", "coordinates": [[756.6127276194231, 0, 457.1133160000131], [767.827717806564, 0, 444.04434799994635]]}}, {"type": "Feature", "properties": {"highway": "service", "id": "way/1103460179", "@id": "way/1103460179"}, "geometry": {"type": "LineString", "coordinates": [[732.2670193858146, 0, 417.92867599967735], [767.827717806564, 0, 444.04434799994635], [774.3731213317211, 0, 448.8533719999857]]}}, {"type": "Feature", "properties": {"highway": "service", "id": "way/1103460180", "@id": "way/1103460180"}, "geometry": {"type": "LineString", "coordinates": [[767.827717806564, 0, 444.04434799994635], [773.97401136026, 0, 435.8400639997784], [774.5427430692731, 0, 434.2927159998884], [773.97401136026, 0, 432.73423599986825], [744.1205855255918, 0, 411.71701999985714], [741.3866822238476, 0, 410.68174400001897], [738.5629791789856, 0, 411.2494759999302], [732.2670193858146, 0, 417.92867599967735]]}}, {"type": "Feature", "properties": {"highway": "service", "id": "way/1103460181", "@id": "way/1103460181"}, "geometry": {"type": "LineString", "coordinates": [[717.1507292321428, 0, 524.3394639997896], [750.1271905899143, 0, 480.59070399990344], [763.9363955887169, 0, 462.267431999735], [767.6181850714405, 0, 457.78123599990874], [774.3731213317211, 0, 448.8533719999857], [781.9262775335061, 0, 439.17966399965195], [787.0049519156348, 0, 433.3464959999044], [788.8807687795172, 0, 426.19975199983486], [790.0082544474417, 0, 419.9992279997492], [790.0082544474417, 0, 411.71701999985714], [791.7044718243792, 0, 404.75952000002167], [795.8452377742124, 0, 395.3529799996461], [801.2930888789147, 0, 386.70341599981145], [811.0712831697878, 0, 372.788415999745], [822.3660953506537, 0, 362.25754399967695], [830.8272267365558, 0, 358.1164399999287], [842.670815127649, 0, 352.6617599998583], [851.8902554589018, 0, 344.01219600002366], [875.3878550047507, 0, 334.4052799996794]]}}, {"type": "Feature", "properties": {"highway": "service", "id": "way/1103460195", "@id": "way/1103460195"}, "geometry": {"type": "LineString", "coordinates": [[727.9266984502509, 0, 634.20117199989], [775.1214525269701, 0, 666.6064239997033]]}}, {"type": "Feature", "properties": {"highway": "service", "id": "way/1103460196", "@id": "way/1103460196"}, "geometry": {"type": "LineString", "coordinates": [[736.2281858479938, 0, 622.1340839996665], [783.7522056511331, 0, 654.6840519999846]]}}, {"type": "Feature", "properties": {"highway": "service", "id": "way/1103460197", "@id": "way/1103460197"}, "geometry": {"type": "LineString", "coordinates": [[743.7514088023091, 0, 611.1913279999266], [791.5847388330827, 0, 642.5279079999069]]}}, {"type": "Feature", "properties": {"highway": "service", "id": "way/1103460198", "@id": "way/1103460198"}, "geometry": {"type": "LineString", "coordinates": [[753.469736597534, 0, 597.0536879996313], [800.3452026979351, 0, 629.8819559996422]]}}, {"type": "Feature", "properties": {"highway": "service", "id": "way/1103460199", "@id": "way/1103460199"}, "geometry": {"type": "LineString", "coordinates": [[760.6736715755312, 0, 586.5784759998182], [808.317424369258, 0, 618.3937319998556]]}}, {"type": "Feature", "properties": {"highway": "service", "id": "way/1103460200", "@id": "way/1103460200"}, "geometry": {"type": "LineString", "coordinates": [[771.0106198253156, 0, 572.0734799999758], [817.5967311961592, 0, 605.001935999971]]}}, {"type": "Feature", "properties": {"highway": "service", "id": "way/1103460202", "@id": "way/1103460202"}, "geometry": {"type": "LineString", "coordinates": [[721.6407164064726, 0, 645.7895839996609], [723.0475790545617, 0, 648.3276799996597], [724.9333736678369, 0, 650.1087999999086], [760.3843168459737, 0, 675.968435999954], [763.8665513436757, 0, 677.4712559997191], [767.4385855844956, 0, 676.8144679999535], [770.5416656095223, 0, 672.8626079996484]]}}, {"type": "Feature", "properties": {"highway": "service", "id": "way/1103460204", "@id": "way/1103460204"}, "geometry": {"type": "LineString", "coordinates": [[787.8530606041036, 0, 547.81685199968], [778.7932642610099, 0, 560.908084000007], [771.0106198253156, 0, 572.0734799999758], [760.6736715755312, 0, 586.5784759998182], [753.469736597534, 0, 597.0536879996313], [743.7514088023091, 0, 611.1913279999266], [736.2281858479938, 0, 622.1340839996665], [727.9266984502509, 0, 634.20117199989], [723.516533270355, 0, 640.6132039996788], [721.9200933859283, 0, 643.7190319999844], [721.6407164064726, 0, 645.7895839996609]]}}, {"type": "Feature", "properties": {"highway": "service", "id": "way/1103460205", "@id": "way/1103460205"}, "geometry": {"type": "LineString", "coordinates": [[770.5416656095223, 0, 672.8626079996484], [775.1214525269701, 0, 666.6064239997033], [783.7522056511331, 0, 654.6840519999846], [791.5847388330827, 0, 642.5279079999069], [800.3452026979351, 0, 629.8819559996422], [808.317424369258, 0, 618.3937319998556], [817.5967311961592, 0, 605.001935999971], [825.1399096492603, 0, 594.1259719998252], [831.7651351688514, 0, 584.5635840000012], [832.8926208367758, 0, 581.55794399968], [832.6132438573202, 0, 578.1738159996816]]}}, {"type": "Feature", "properties": {"highway": "service", "oneway": "yes", "id": "way/1103460207", "@id": "way/1103460207"}, "geometry": {"type": "LineString", "coordinates": [[880.8756171063155, 0, 595.9293559999388], [853.7361390753146, 0, 577.0383519998591], [828.1731454292457, 0, 559.2494160000025], [791.8541380638544, 0, 533.9686439999986], [776.8974918983417, 0, 523.7828640000084]]}}, {"type": "Feature", "properties": {"highway": "service", "id": "way/1103515773", "@id": "way/1103515773"}, "geometry": {"type": "LineString", "coordinates": [[748.4209954642929, 0, 743.4060919998292], [778.4739762839827, 0, 761.5623839996283], [785.0493130573184, 0, 763.4436919998616], [791.3153396023109, 0, 764.3899119998456], [797.2620781709852, 0, 761.2506879999407], [806.9704282168173, 0, 754.9945039999956], [812.2885685815392, 0, 756.8758119998334], [818.8639053541659, 0, 761.2506879999407], [827.3250367407769, 0, 765.0133040000118], [833.9003735141126, 0, 765.6366959997825], [845.733984155104, 0, 762.0521919998155]]}}, {"type": "Feature", "properties": {"highway": "service", "id": "way/1103515778", "@id": "way/1103515778"}, "geometry": {"type": "LineString", "coordinates": [[764.5051272970211, 0, 701.9950519999732], [780.1502381621345, 0, 680.7885919997279]]}}, {"type": "Feature", "properties": {"highway": "service", "oneway": "yes", "id": "way/1103852523", "@id": "way/1103852523"}, "geometry": {"type": "LineString", "coordinates": [[769.3443356965568, 0, 511.9606799998786], [781.6868115509129, 0, 516.6806479996683], [797.6013216467982, 0, 526.6994479996845], [833.5212190414372, 0, 551.8911639998341], [926.5836865412206, 0, 617.1469479999187]]}}, {"type": "Feature", "properties": {"highway": "service", "oneway": "yes", "id": "way/1103852529", "@id": "way/1103852529"}, "geometry": {"type": "LineString", "coordinates": [[776.8974918983417, 0, 523.7828640000084], [769.3443356965568, 0, 511.9606799998786]]}}, {"type": "Feature", "properties": {"highway": "service", "id": "way/1103852531", "@id": "way/1103852531"}, "geometry": {"type": "LineString", "coordinates": [[708.8193085862212, 0, 450.55656799971956], [750.1271905899143, 0, 480.59070399990344]]}}, {"type": "Feature", "properties": {"highway": "service", "id": "way/1103852532", "@id": "way/1103852532"}, "geometry": {"type": "LineString", "coordinates": [[723.8058879992036, 0, 431.2759439998325], [708.8193085862212, 0, 450.55656799971956], [681.0612100999517, 0, 480.42372399992956]]}}, {"type": "Feature", "properties": {"highway": "service", "id": "way/1166296592", "@id": "way/1166296592"}, "geometry": {"type": "LineString", "coordinates": [[667.3318270955832, 0, 115.97317599993616], [676.8805331532561, 0, 128.44101599970145], [679.0257492472012, 0, 135.66568399989066], [676.7508224125667, 0, 144.2261919998711], [652.9239571410068, 0, 191.45926799974006], [649.5814111333871, 0, 194.80999999974372], [645.5703559242435, 0, 195.61150400001395], [637.4085570158738, 0, 195.74508799999307], [620.965226208547, 0, 195.8786719999722]]}}, {"type": "Feature", "properties": {"highway": "service", "id": "way/1168177038", "@id": "way/1168177038"}, "geometry": {"type": "LineString", "coordinates": [[-30.571823782447545, 0, 263.4610439999567], [-12.781496822679967, 0, 277.0977439999348], [-5.5576063466060335, 0, 288.87539999993976], [-5.5576063466060335, 0, 291.825380000006], [-8.50104238347354, 0, 302.1224799997151], [8.012132668894434, 0, 316.31577999986985]]}}, {"type": "Feature", "properties": {"highway": "residential", "id": "way/1168187538", "@id": "way/1168187538"}, "geometry": {"type": "LineString", "coordinates": [[14.80697992603754, 0, 448.67525999988175], [-26.321302590710776, 0, 495.0066439998916]]}}, {"type": "Feature", "properties": {"highway": "residential", "id": "way/1168187539", "@id": "way/1168187539"}, "geometry": {"type": "LineString", "coordinates": [[-71.08148584392733, 0, 454.35257999978546], [-37.67598126722492, 0, 413.7207799999395], [-32.327907655033385, 0, 413.0528599996484], [-26.43105783261446, 0, 415.323787999689], [14.80697992603754, 0, 448.67525999988175], [55.31664198751732, 0, 481.425603999773]]}}, {"type": "Feature", "properties": {"highway": "residential", "id": "way/1179656580", "@id": "way/1179656580"}, "geometry": {"type": "LineString", "coordinates": [[616.3056172966652, 0, 204.14974799973422], [663.1012614026322, 0, 235.35274399973545], [668.4493350148238, 0, 239.9057319999467], [669.8561976629128, 0, 243.44570799978897], [668.9881334756582, 0, 251.3382959998738], [663.620104364681, 0, 263.6057599996704]]}}, {"type": "Feature", "properties": {"highway": "residential", "id": "way/1249941569", "@id": "way/1249941569"}, "geometry": {"type": "LineString", "coordinates": [[220.23885977536463, 0, 737.7621679999203], [361.3741232878057, 0, 543.6980119997963]]}}, {"type": "Feature", "properties": {"highway": "traffic_signals", "traffic_signals": "signal", "id": "node/351320305", "@id": "node/351320305"}, "geometry": {"type": "Point", "coordinates": [335.1825314377843, 0, 510.66936799981676]}}, {"type": "Feature", "properties": {"highway": "traffic_signals", "traffic_signals": "signal", "id": "node/1533447644", "@id": "node/1533447644"}, "geometry": {"type": "Point", "coordinates": [337.5771912644244, 0, 493.73759599969446]}}, {"type": "Feature", "properties": {"highway": "traffic_signals", "traffic_signals": "signal", "id": "node/1696880654", "@id": "node/1696880654"}, "geometry": {"type": "Point", "coordinates": [329.84443557498565, 0, 502.58753599989336]}}, {"type": "Feature", "properties": {"amenity": "fuel", "fuel:diesel": "yes", "name": "Sasco", "payment:visa": "yes", "id": "node/3648080749", "@id": "node/3648080749"}, "geometry": {"type": "Point", "coordinates": [425.3813848951342, 0, 604.512127999784]}}, {"type": "Feature", "properties": {"amenity": "place_of_worship", "religion": "muslim", "id": "node/3648080750", "@id": "node/3648080750"}, "geometry": {"type": "Point", "coordinates": [628.2988719272336, 0, 234.62916399998036]}}, {"type": "Feature", "properties": {"amenity": "place_of_worship", "religion": "muslim", "id": "node/3648080751", "@id": "node/3648080751"}, "geometry": {"type": "Point", "coordinates": [285.2738295581068, 0, 493.55948399998596]}}, {"type": "Feature", "properties": {"amenity": "place_of_worship", "religion": "muslim", "id": "node/3648080753", "@id": "node/3648080753"}, "geometry": {"type": "Point", "coordinates": [322.0218801424289, 0, 310.3045000000184]}}, {"type": "Feature", "properties": {"amenity": "fast_food", "brand": "\u0627\u0644\u0628\u064a\u0643", "brand:ar": "\u0627\u0644\u0628\u064a\u0643", "brand:en": "Albaik", "brand:wikidata": "Q4703536", "brand:wikipedia": "ar:\u0627\u0644\u0628\u064a\u0643", "cuisine": "chicken", "name": "\u0627\u0644\u0628\u064a\u0643", "name:ar": "\u0627\u0644\u0628\u064a\u0643", "name:en": "Albaik", "takeaway": "yes", "id": "node/4108789704", "@id": "node/4108789704"}, "geometry": {"type": "Point", "coordinates": [674.2962960902782, 0, 184.45723999977972]}}, {"type": "Feature", "properties": {"addr:housenumber": "7906", "addr:postcode": "52354", "addr:street": "\u0627\u0644\u062c\u0631\u062f\u0629", "email": "altwejry1@gmail.com", "internet_access": "wlan", "name": "\u0627\u0644\u062a\u0648\u064a\u062c\u0631\u064a \u0644\u0644\u0639\u0648\u062f \u0648 \u0627\u0644\u0639\u0637\u0648\u0631 \u0648 \u0627\u0644\u0639\u0633\u0644 0555134383", "opening_hours": "Mo-Su 08:00-12:00, 16:00-20:00", "phone": "+966163266333", "shop": "convenience", "id": "node/4754013721", "@id": "node/4754013721"}, "geometry": {"type": "Point", "coordinates": [301.5375608784888, 0, 322.8279999996431]}}, {"type": "Feature", "properties": {"name": "Loontani", "name:ar": "Loontani", "shop": "jewelry", "id": "node/5027392423", "@id": "node/5027392423"}, "geometry": {"type": "Point", "coordinates": [243.19766085966995, 0, 394.8409079999898]}}, {"type": "Feature", "properties": {"amenity": "atm", "operator": "\u0635\u0631\u0627\u0641 \u0627\u0644\u0631\u0627\u062c\u062d\u064a", "id": "node/6244226532", "@id": "node/6244226532"}, "geometry": {"type": "Point", "coordinates": [248.2364242442272, 0, 72.66969599971674]}}, {"type": "Feature", "properties": {"highway": "traffic_signals", "traffic_signals": "signal", "id": "node/6633267570", "@id": "node/6633267570"}, "geometry": {"type": "Point", "coordinates": [589.9444037090918, 0, 778.3939679997662]}}, {"type": "Feature", "properties": {"highway": "traffic_signals", "traffic_signals": "signal", "id": "node/6633267583", "@id": "node/6633267583"}, "geometry": {"type": "Point", "coordinates": [344.22237228209235, 0, 501.48546799967005]}}, {"type": "Feature", "properties": {"barrier": "gate", "id": "node/7099732465", "@id": "node/7099732465"}, "geometry": {"type": "Point", "coordinates": [717.1507292321428, 0, 524.3394639997896]}}, {"type": "Feature", "properties": {"name": "\u0627\u0644\u0633\u0646\u064a\u062f\u064a \u0644\u0644\u0648\u0627\u0632\u0645 \u0627\u0644\u0631\u062d\u0644\u0627\u062a", "shop": "convenience", "id": "node/7529893725", "@id": "node/7529893725"}, "geometry": {"type": "Point", "coordinates": [269.12983122902136, 0, 521.456275999713]}}, {"type": "Feature", "properties": {"name": "\u0634\u0631\u0643\u0629 \u0627\u0644\u0647\u062f\u0641 \u0644\u0644\u0648\u0632\u0627\u0645 \u0627\u0644\u0635\u064a\u062f", "shop": "weapons", "id": "node/7529932162", "@id": "node/7529932162"}, "geometry": {"type": "Point", "coordinates": [354.0704108180067, 0, 298.70495599972185]}}]}