{"type":"FeatureCollection","features":[{"type":"Feature","id":"way/360208088","properties":{"denomination":"sunni","landuse":"cemetery","name":"مقبرة الصقعا الجنوبية","religion":"muslim","id":"way/360208088","@id":"way/360208088"},"geometry":{"type":"Polygon","coordinates":[[[43.977972,26.3248701],[43.9779036,26.3248156],[43.9778704,26.3247729],[43.9779955,26.3244332],[43.9782233,26.3236363],[43.9783216,26.3229516],[43.9783216,26.3228115],[43.9785137,26.3225192],[43.9786835,26.3223951],[43.9788979,26.3223751],[43.979157,26.3224912],[43.9790676,26.3228515],[43.9790453,26.3234281],[43.9788845,26.3240127],[43.978539,26.324809],[43.9784282,26.324883],[43.9782261,26.3249284],[43.9781573,26.3249273],[43.9780294,26.3249069],[43.977972,26.3248701]]]}},{"type":"Feature","id":"way/360208089","properties":{"denomination":"sunni","landuse":"cemetery","name":"مقبرة بريدة القديمة","religion":"muslim","id":"way/360208089","@id":"way/360208089"},"geometry":{"type":"Polygon","coordinates":[[[43.9751427,26.3278227],[43.9749647,26.3274023],[43.9750298,26.3271876],[43.975444,26.3268623],[43.9758753,26.3264665],[43.9762211,26.3260861],[43.9767756,26.3255369],[43.9772757,26.3251384],[43.9774632,26.3250406],[43.9778015,26.3250768],[43.9783572,26.3252236],[43.9783897,26.3253632],[43.9783264,26.3255105],[43.9781073,26.3259186],[43.9775545,26.3266518],[43.9773217,26.3268819],[43.9758224,26.3274971],[43.9751427,26.3278227]]]}},{"type":"Feature","id":"way/666903113","properties":{"building":"yes","shop":"greengrocer","id":"way/666903113","@id":"way/666903113"},"geometry":{"type":"Polygon","coordinates":[[[43.9730201,26.3228991],[43.9721368,26.322448],[43.9722525,26.3222658],[43.9731359,26.3227168],[43.9730201,26.3228991]]]}},{"type":"Feature","id":"way/666903116","properties":{"building":"yes","shop":"greengrocer","id":"way/666903116","@id":"way/666903116"},"geometry":{"type":"Polygon","coordinates":[[[43.9731328,26.3226852],[43.9727112,26.322449],[43.9728286,26.3222643],[43.973255,26.3224898],[43.9731328,26.3226852]]]}},{"type":"Feature","id":"way/974827522","properties":{"addr:street":"شارع التعليم","amenity":"hospital","healthcare":"hospital","name":"مستشفى بريدة المركزي","name:en":"Buraydah Central Hospital","website":"https://qassimedu.gov.sa/","id":"way/974827522","@id":"way/974827522"},"geometry":{"type":"Polygon","coordinates":[[[43.9825099,26.3258287],[43.9813065,26.327294],[43.9807726,26.3279406],[43.9807395,26.3279307],[43.9802796,26.3284911],[43.9803127,26.328518],[43.9796354,26.329341],[43.9781139,26.3283076],[43.9795519,26.3264117],[43.9795913,26.3263976],[43.9796606,26.3263072],[43.9796559,26.3262719],[43.980782,26.3248235],[43.9808198,26.3247981],[43.9809096,26.3247882],[43.9825099,26.3258287]]]}},{"type":"Feature","id":"way/974827523","properties":{"building":"yes","layer":"1","name":"الإدارة العامة للتعليم بمنطقة القصيم","office":"government","website":"https://qassimedu.gov.sa/","id":"way/974827523","@id":"way/974827523"},"geometry":{"type":"Polygon","coordinates":[[[43.9803854,26.3249244],[43.9784654,26.3274133],[43.9776668,26.326778],[43.9776684,26.3267201],[43.9788418,26.3250726],[43.9788985,26.3250317],[43.9797531,26.3249358],[43.9803445,26.3248694],[43.9803854,26.3249244]]]}},{"type":"Feature","id":"way/974981015","properties":{"amenity":"place_of_worship","building":"yes","denomination":"sunni","name":"مسجد الحميدي","religion":"muslim","id":"way/974981015","@id":"way/974981015"},"geometry":{"type":"Polygon","coordinates":[[[43.9739179,26.3233903],[43.9737078,26.3232682],[43.9739074,26.3229989],[43.9742044,26.3231735],[43.9741058,26.3233166],[43.9740494,26.3232998],[43.9739179,26.3233903]]]}},{"type":"Feature","id":"way/974986169","properties":{"amenity":"parking","id":"way/974986169","@id":"way/974986169"},"geometry":{"type":"Polygon","coordinates":[[[43.973697,26.3232328],[43.9732088,26.323002],[43.9740886,26.3216437],[43.9749603,26.3220644],[43.9741878,26.3231174],[43.9739048,26.3229575],[43.973697,26.3232328]]]}},{"type":"Feature","id":"way/974986171","properties":{"building":"yes","shop":"greengrocer","id":"way/974986171","@id":"way/974986171"},"geometry":{"type":"Polygon","coordinates":[[[43.9719952,26.3228276],[43.9715333,26.3230885],[43.9714735,26.3230035],[43.9719354,26.3227426],[43.9719952,26.3228276]]]}},{"type":"Feature","id":"way/974986172","properties":{"building":"yes","shop":"greengrocer","id":"way/974986172","@id":"way/974986172"},"geometry":{"type":"Polygon","coordinates":[[[43.9723103,26.3229767],[43.9717584,26.3232788],[43.9717047,26.323192],[43.9722565,26.3228845],[43.9723103,26.3229767]]]}},{"type":"Feature","id":"way/974986173","properties":{"building":"yes","shop":"greengrocer","id":"way/974986173","@id":"way/974986173"},"geometry":{"type":"Polygon","coordinates":[[[43.9726082,26.323129],[43.9719923,26.3234669],[43.9719326,26.323382],[43.9725524,26.323044],[43.9726082,26.323129]]]}},{"type":"Feature","id":"way/974986174","properties":{"building":"yes","shop":"greengrocer","id":"way/974986174","@id":"way/974986174"},"geometry":{"type":"Polygon","coordinates":[[[43.9728821,26.3232921],[43.9722682,26.3236336],[43.9722085,26.3235486],[43.9728163,26.3232053],[43.9728821,26.3232921]]]}},{"type":"Feature","id":"way/974986176","properties":{"amenity":"marketplace","id":"way/974986176","@id":"way/974986176"},"geometry":{"type":"Polygon","coordinates":[[[43.9738438,26.3236838],[43.973079,26.3246281],[43.9726817,26.3244258],[43.9721515,26.3240666],[43.9715319,26.3235646],[43.9716982,26.3233937],[43.972176,26.323767],[43.9722915,26.323767],[43.972477,26.3236493],[43.9725015,26.3236666],[43.9730423,26.3234062],[43.9730212,26.3233466],[43.9732085,26.3232509],[43.973261,26.3232807],[43.9732785,26.3233419],[43.9731648,26.3233921],[43.9732155,26.323494],[43.9734448,26.3233952],[43.973821,26.3235882],[43.9738438,26.3236838]]]}},{"type":"Feature","id":"way/1123382127","properties":{"amenity":"place_of_worship","building":"mosque","denomination":"sunni","name":"جامع الملك فهد","religion":"muslim","id":"way/1123382127","@id":"way/1123382127"},"geometry":{"type":"Polygon","coordinates":[[[43.9715708,26.3252622],[43.9720257,26.325764],[43.9716618,26.3260539],[43.9716679,26.3261518],[43.9714617,26.3263656],[43.9708754,26.3259108],[43.9710877,26.3257332],[43.9710048,26.3256408],[43.9715708,26.3252622]]]}},{"type":"Feature","id":"way/1299511459","properties":{"name":"السادة","name:ar":"السادة","name:en":"As Saddah","place":"suburb","id":"way/1299511459","@id":"way/1299511459"},"geometry":{"type":"Polygon","coordinates":[[[43.9769044,26.3246972],[43.9774867,26.3239693],[43.9786206,26.3220877],[43.9805514,26.3203845],[43.9818999,26.3193544],[43.982191,26.3189973],[43.9825435,26.3177062],[43.9830032,26.3159206],[43.9857155,26.3175001],[43.9870333,26.3181594],[43.9904747,26.3198857],[43.9866923,26.3252698],[43.9834629,26.3246972],[43.9822983,26.3245324],[43.9807506,26.324656],[43.9789578,26.3248208],[43.9782682,26.3250543],[43.9769044,26.3246972]]]}},{"type":"Feature","id":"way/1299511460","properties":{"name":"الخبيب","name:ar":"الخبيب","name:en":"Al Khubayb","place":"suburb","id":"way/1299511460","@id":"way/1299511460"},"geometry":{"type":"Polygon","coordinates":[[[43.967291,26.3358365],[43.9704608,26.3317703],[43.9719779,26.3298201],[43.973334,26.3282407],[43.9744833,26.326984],[43.9747284,26.3273068],[43.9750043,26.3278424],[43.9753567,26.3283162],[43.9757858,26.3287969],[43.9769657,26.3294905],[43.9757858,26.3310836],[43.9736098,26.3337754],[43.9721234,26.3358354],[43.9702152,26.3388404],[43.9694464,26.3377399],[43.9689597,26.3372915],[43.9680929,26.336546],[43.967291,26.3358365]]]}},{"type":"Feature","id":"way/1299511461","properties":{"name":"التعليم","name:ar":"التعليم","name:en":"At Ta'leem","place":"suburb","id":"way/1299511461","@id":"way/1299511461"},"geometry":{"type":"Polygon","coordinates":[[[43.9769657,26.3294905],[43.9757858,26.3287969],[43.9753567,26.3283162],[43.9750043,26.3278424],[43.9747284,26.3273068],[43.9744833,26.326984],[43.9760463,26.3257136],[43.9766439,26.3250681],[43.9769044,26.3246972],[43.9782682,26.3250543],[43.9789578,26.3248208],[43.9807506,26.324656],[43.9822983,26.3245324],[43.9834629,26.3246972],[43.9866923,26.3252698],[43.9812197,26.3322061],[43.9769657,26.3294905]]]}},{"type":"Feature","id":"way/1299511462","properties":{"name":"التغيرة","name:ar":"التغيرة","name:en":"At Tughayrah","place":"suburb","id":"way/1299511462","@id":"way/1299511462"},"geometry":{"type":"Polygon","coordinates":[[[43.9812197,26.3322061],[43.9795171,26.334594],[43.9778587,26.3373287],[43.9772949,26.3383889],[43.9760566,26.3407668],[43.9751279,26.3425701],[43.974009,26.344738],[43.973876,26.3446867],[43.9736606,26.3444891],[43.9721168,26.3418777],[43.9702152,26.3388404],[43.9721234,26.3358354],[43.9736098,26.3337754],[43.9757858,26.3310836],[43.9769657,26.3294905],[43.9812197,26.3322061]]]}},{"type":"Feature","id":"way/1299781141","properties":{"name":"البوطة","name:ar":"البوطة","name:en":"Al Butah","place":"suburb","id":"way/1299781141","@id":"way/1299781141"},"geometry":{"type":"Polygon","coordinates":[[[43.9734381,26.3119442],[43.976748,26.3131704],[43.9755893,26.3152861],[43.974688,26.3168056],[43.973465,26.3188924],[43.9722311,26.3206282],[43.9715981,26.3222678],[43.9705682,26.3232102],[43.9698601,26.3240757],[43.9684224,26.3232295],[43.967868,26.3229026],[43.96927,26.3181471],[43.9697099,26.316344],[43.9705252,26.3154592],[43.9720058,26.3135358],[43.9734381,26.3119442]]]}},{"type":"Feature","id":"way/1299781146","properties":{"name":"العجيبة","name:ar":"العجيبة","name:en":"Al 'Ajeebah","place":"suburb","id":"way/1299781146","@id":"way/1299781146"},"geometry":{"type":"Polygon","coordinates":[[[43.9698601,26.3240757],[43.9714265,26.3249604],[43.9698386,26.3266913],[43.9691305,26.3275567],[43.968358,26.3284991],[43.9674246,26.3296915],[43.9666629,26.3291241],[43.965944,26.3288741],[43.9661586,26.328576],[43.9663088,26.3281048],[43.9664268,26.3275279],[43.9665019,26.3267682],[43.9667272,26.3260182],[43.9670384,26.32522],[43.9676499,26.3242969],[43.9684224,26.3232295],[43.9698601,26.3240757]]]}},{"type":"Feature","id":"way/1299781148","properties":{"name":"الجردة","name:ar":"الجردة","name:en":"Al Juradah","place":"suburb","id":"way/1299781148","@id":"way/1299781148"},"geometry":{"type":"Polygon","coordinates":[[[43.9674246,26.3296915],[43.968358,26.3284991],[43.9691305,26.3275567],[43.9698386,26.3266913],[43.9714265,26.3249604],[43.9698601,26.3240757],[43.9705682,26.3232102],[43.9715981,26.3222678],[43.9722311,26.3206282],[43.9751548,26.3219553],[43.9761579,26.3204984],[43.9786206,26.3220877],[43.9774867,26.3239693],[43.9769044,26.3246972],[43.9766439,26.3250681],[43.9760463,26.3257136],[43.9744833,26.326984],[43.973334,26.3282407],[43.9719779,26.3298201],[43.9704608,26.3317703],[43.9674246,26.3296915]]]}},{"type":"Feature","id":"way/121936391","properties":{"highway":"residential","id":"way/121936391","@id":"way/121936391"},"geometry":{"type":"LineString","coordinates":[[43.9712443,26.3272788],[43.9713178,26.3273257],[43.9715279,26.3275081],[43.9717868,26.3277458],[43.97216,26.3281494],[43.9723243,26.3283132],[43.9727992,26.3287585]]}},{"type":"Feature","id":"way/121936678","properties":{"highway":"tertiary","oneway":"yes","id":"way/121936678","@id":"way/121936678"},"geometry":{"type":"LineString","coordinates":[[43.9725427,26.3256376],[43.9724,26.3258326],[43.9722881,26.325981],[43.97212,26.3262038],[43.9717462,26.3267128],[43.9716544,26.3268247],[43.9714851,26.3270311],[43.9713383,26.3271813],[43.9712443,26.3272788],[43.9711348,26.3274024],[43.9710308,26.3275107],[43.9709069,26.3276396],[43.9707991,26.3277519],[43.9707432,26.3277826],[43.9706785,26.3277931],[43.9706114,26.327777],[43.9705275,26.3277305],[43.9703769,26.3276386],[43.9699994,26.3273556],[43.9696134,26.3269981]]}},{"type":"Feature","id":"way/121936768","properties":{"highway":"tertiary","oneway":"yes","id":"way/121936768","@id":"way/121936768"},"geometry":{"type":"LineString","coordinates":[[43.9740107,26.3236053],[43.9732305,26.3231972],[43.9729144,26.323046],[43.9726081,26.3228898],[43.9723018,26.322751],[43.9715094,26.3223438],[43.9714682,26.3222348]]}},{"type":"Feature","id":"way/122188040","properties":{"highway":"trunk","name":"طريق الملك عبد العزيز","name:en":"King Abdulaziz Road","oneway":"yes","id":"way/122188040","@id":"way/122188040"},"geometry":{"type":"LineString","coordinates":[[43.9786226,26.3223429],[43.9784839,26.3224688],[43.9783654,26.3226461],[43.9777882,26.3235418],[43.9773235,26.3242596],[43.9772768,26.3243339],[43.9769865,26.3247226],[43.9765893,26.3251862],[43.9762566,26.325538],[43.9760784,26.3257074],[43.9751362,26.3264915],[43.9745499,26.3270049],[43.9744593,26.3270874],[43.9729011,26.3288184],[43.9710734,26.3310221],[43.9708202,26.3313308],[43.970499,26.3317763],[43.9701611,26.3322028],[43.9700477,26.3323644],[43.9693643,26.3332892],[43.9689486,26.3338516],[43.9682566,26.3347656],[43.9677503,26.3353445],[43.9672975,26.3358348],[43.9672365,26.3359192],[43.966982,26.3362323],[43.9666066,26.3367234],[43.9661357,26.3373674],[43.9648593,26.3391107],[43.9643731,26.3397746],[43.9637532,26.340563],[43.9631994,26.3411986],[43.9625069,26.3419753],[43.9614733,26.3431365],[43.9609389,26.3437413],[43.9606154,26.3440924],[43.9602415,26.3445089],[43.9597998,26.345004],[43.9593957,26.3455114],[43.9590241,26.3461016],[43.9587107,26.3467091],[43.9583829,26.3473506],[43.9582747,26.3475488],[43.9579685,26.3481098],[43.9577804,26.3484546],[43.9575715,26.3488184],[43.9573507,26.3491756],[43.957078,26.3496637],[43.9570621,26.3496922],[43.9569159,26.3499668],[43.9567696,26.3502414],[43.9566252,26.3505311],[43.956071,26.3515189],[43.9554705,26.3526093],[43.9554424,26.3526662],[43.9545622,26.3541986],[43.9545046,26.3543013],[43.9539384,26.3552774],[43.9536865,26.3556492],[43.9534637,26.3558636],[43.9532812,26.3560249],[43.953019,26.3562812],[43.9528473,26.3564359],[43.9527853,26.3564825],[43.9527346,26.3565238],[43.9526327,26.3566068],[43.9522423,26.3568884],[43.9519732,26.3570799],[43.9518012,26.3571833],[43.9516119,26.357297],[43.9513317,26.3574758],[43.951005,26.3576633],[43.9501361,26.3581118],[43.9497984,26.3582591],[43.9494699,26.3584116],[43.9484731,26.3588743],[43.9467423,26.3596757],[43.9465712,26.3598236],[43.9464613,26.360046],[43.946375,26.3602748]]}},{"type":"Feature","id":"way/139943102","properties":{"highway":"tertiary","id":"way/139943102","@id":"way/139943102"},"geometry":{"type":"LineString","coordinates":[[43.9778337,26.3216851],[43.9772923,26.3221772],[43.9768205,26.32253],[43.9764762,26.3228068],[43.9763543,26.3229313],[43.9762636,26.3230583],[43.9761843,26.3231802],[43.9758862,26.3236084],[43.9757659,26.3237854],[43.9755637,26.3240831],[43.9754341,26.3242613],[43.9752803,26.324473],[43.9750644,26.3247976],[43.9748744,26.3250436],[43.9748354,26.325094],[43.9746334,26.3254111],[43.974526,26.3255796],[43.9744113,26.325694],[43.9743182,26.3257709],[43.9740163,26.3260291],[43.973847,26.3261597],[43.973706,26.3262905]]}},{"type":"Feature","id":"way/139943103","properties":{"highway":"residential","id":"way/139943103","@id":"way/139943103"},"geometry":{"type":"LineString","coordinates":[[43.9729011,26.3288184],[43.9733073,26.3291274],[43.9737372,26.3294553],[43.9741678,26.3298333],[43.9745861,26.3302067],[43.9748984,26.3304625],[43.974961,26.3305159],[43.9753291,26.3308301],[43.9757282,26.3311172]]}},{"type":"Feature","id":"way/378355952","properties":{"highway":"residential","id":"way/378355952","@id":"way/378355952"},"geometry":{"type":"LineString","coordinates":[[43.9733073,26.3291274],[43.9714189,26.3312569],[43.971197,26.3315581],[43.9708479,26.3319564]]}},{"type":"Feature","id":"way/378355953","properties":{"highway":"residential","id":"way/378355953","@id":"way/378355953"},"geometry":{"type":"LineString","coordinates":[[43.9748175,26.3273328],[43.9754745,26.3267479],[43.976011,26.3262286],[43.9765294,26.3257455],[43.976986,26.3253224],[43.97747,26.3249147]]}},{"type":"Feature","id":"way/378355954","properties":{"highway":"residential","id":"way/378355954","@id":"way/378355954"},"geometry":{"type":"LineString","coordinates":[[43.9720285,26.332735],[43.9723063,26.3323583],[43.9741678,26.3298333],[43.9753154,26.3283141]]}},{"type":"Feature","id":"way/378355955","properties":{"highway":"residential","id":"way/378355955","@id":"way/378355955"},"geometry":{"type":"LineString","coordinates":[[43.9731589,26.3334706],[43.9734453,26.3331222],[43.9736365,26.3328895],[43.9740996,26.3322407],[43.9745823,26.3316868],[43.9753291,26.3308301],[43.9765838,26.3293255]]}},{"type":"Feature","id":"way/378355956","properties":{"highway":"residential","id":"way/378355956","@id":"way/378355956"},"geometry":{"type":"LineString","coordinates":[[43.9788563,26.3248943],[43.9785537,26.3253439],[43.978028,26.3261613],[43.9775854,26.3267551],[43.9774127,26.3269008],[43.9772483,26.3269889],[43.977084,26.3270769],[43.976026,26.3274993],[43.975095,26.3279009]]}},{"type":"Feature","id":"way/378355959","properties":{"highway":"residential","id":"way/378355959","@id":"way/378355959"},"geometry":{"type":"LineString","coordinates":[[43.972423,26.3329917],[43.9727085,26.3326207],[43.9729537,26.3323054],[43.9733818,26.331755],[43.9745861,26.3302067],[43.9757456,26.3287605],[43.975791,26.3287039]]}},{"type":"Feature","id":"way/378355961","properties":{"highway":"residential","id":"way/378355961","@id":"way/378355961"},"geometry":{"type":"LineString","coordinates":[[43.9727734,26.3332198],[43.9730511,26.3328766],[43.9732637,26.3326137],[43.9732994,26.3325697],[43.9737338,26.3320223],[43.9737614,26.3319986],[43.974961,26.3305159],[43.9761715,26.3290621],[43.9762243,26.3289987]]}},{"type":"Feature","id":"way/463438039","properties":{"highway":"residential","surface":"asphalt","id":"way/463438039","@id":"way/463438039"},"geometry":{"type":"LineString","coordinates":[[43.9732074,26.3247156],[43.9725778,26.3243925],[43.9719475,26.3239717],[43.9715264,26.3236183],[43.9711429,26.3233443],[43.9707435,26.3231452]]}},{"type":"Feature","id":"way/463441357","properties":{"highway":"residential","surface":"asphalt","id":"way/463441357","@id":"way/463441357"},"geometry":{"type":"LineString","coordinates":[[43.9717958,26.3233558],[43.9726081,26.3228898]]}},{"type":"Feature","id":"way/463441358","properties":{"highway":"residential","surface":"asphalt","id":"way/463441358","@id":"way/463441358"},"geometry":{"type":"LineString","coordinates":[[43.9715539,26.3231517],[43.9723018,26.322751]]}},{"type":"Feature","id":"way/463441361","properties":{"highway":"residential","surface":"asphalt","id":"way/463441361","@id":"way/463441361"},"geometry":{"type":"LineString","coordinates":[[43.9720168,26.3235299],[43.9729144,26.323046]]}},{"type":"Feature","id":"way/463441362","properties":{"highway":"residential","surface":"asphalt","id":"way/463441362","@id":"way/463441362"},"geometry":{"type":"LineString","coordinates":[[43.9730586,26.3230128],[43.9736955,26.3220277],[43.9738867,26.3217321],[43.9740682,26.3214514]]}},{"type":"Feature","id":"way/463441363","properties":{"highway":"tertiary","oneway":"yes","surface":"asphalt","id":"way/463441363","@id":"way/463441363"},"geometry":{"type":"LineString","coordinates":[[43.9714682,26.3222348],[43.9730586,26.3230128],[43.9740754,26.3235303]]}},{"type":"Feature","id":"way/463441375","properties":{"highway":"residential","surface":"asphalt","id":"way/463441375","@id":"way/463441375"},"geometry":{"type":"LineString","coordinates":[[43.9732305,26.3231972],[43.9722499,26.3237057],[43.9720168,26.3235299],[43.9718771,26.3234245],[43.9717958,26.3233558],[43.9715539,26.3231517],[43.97111,26.3227684]]}},{"type":"Feature","id":"way/704208198","properties":{"highway":"tertiary","id":"way/704208198","@id":"way/704208198"},"geometry":{"type":"LineString","coordinates":[[43.9725427,26.3256376],[43.9728111,26.3252648],[43.9730844,26.324886],[43.9732074,26.3247156],[43.9734359,26.3244062],[43.9736425,26.3241265],[43.9740107,26.3236053]]}},{"type":"Feature","id":"way/704208200","properties":{"highway":"tertiary","name":"شارع الصناعة","oneway":"yes","id":"way/704208200","@id":"way/704208200"},"geometry":{"type":"LineString","coordinates":[[43.9696134,26.3269981],[43.9698185,26.3267707],[43.9698792,26.3267035],[43.9701579,26.3263945],[43.9706106,26.3259282],[43.9711803,26.3253415],[43.9714763,26.3250366]]}},{"type":"Feature","id":"way/706348072","properties":{"highway":"tertiary","name":"شارع التعليم","oneway":"yes","id":"way/706348072","@id":"way/706348072"},"geometry":{"type":"LineString","coordinates":[[43.9806893,26.3246968],[43.9806911,26.3248025],[43.9796019,26.3262545],[43.9789343,26.3271414],[43.9788863,26.3272052],[43.978035,26.3283243],[43.9770944,26.3295402],[43.9770403,26.3296051],[43.9758424,26.3311126],[43.9757917,26.3311764],[43.9753648,26.331672],[43.9750715,26.3320125],[43.9748299,26.332293],[43.9746313,26.3325236],[43.974555,26.3326271],[43.974113,26.333226],[43.9739469,26.3334512],[43.973679,26.3338143]]}},{"type":"Feature","id":"way/748831417","properties":{"highway":"residential","id":"way/748831417","@id":"way/748831417"},"geometry":{"type":"LineString","coordinates":[[43.9791326,26.3234784],[43.9788716,26.3241599],[43.978612,26.3248466]]}},{"type":"Feature","id":"way/759976302","properties":{"highway":"tertiary","id":"way/759976302","@id":"way/759976302"},"geometry":{"type":"LineString","coordinates":[[43.9740107,26.3236053],[43.9745465,26.3238196],[43.9748602,26.3239935],[43.9754341,26.3242613],[43.9758721,26.3244478],[43.9762611,26.3246135],[43.9767288,26.3248691]]}},{"type":"Feature","id":"way/759995326","properties":{"highway":"residential","id":"way/759995326","@id":"way/759995326"},"geometry":{"type":"LineString","coordinates":[[43.9769023,26.3219935],[43.9765215,26.3225363],[43.9764762,26.3228068]]}},{"type":"Feature","id":"way/759995334","properties":{"highway":"residential","id":"way/759995334","@id":"way/759995334"},"geometry":{"type":"LineString","coordinates":[[43.9765359,26.3218258],[43.9758271,26.322935]]}},{"type":"Feature","id":"way/759995335","properties":{"highway":"residential","id":"way/759995335","@id":"way/759995335"},"geometry":{"type":"LineString","coordinates":[[43.9758271,26.322935],[43.9754754,26.322806]]}},{"type":"Feature","id":"way/759995336","properties":{"highway":"residential","id":"way/759995336","@id":"way/759995336"},"geometry":{"type":"LineString","coordinates":[[43.9757812,26.3219719],[43.975918,26.3220488],[43.9754754,26.322806]]}},{"type":"Feature","id":"way/759995337","properties":{"highway":"residential","id":"way/759995337","@id":"way/759995337"},"geometry":{"type":"LineString","coordinates":[[43.9754754,26.322806],[43.9753213,26.3231391],[43.9752386,26.3233029],[43.9751313,26.3235295],[43.9757659,26.3237854]]}},{"type":"Feature","id":"way/759995338","properties":{"highway":"residential","id":"way/759995338","@id":"way/759995338"},"geometry":{"type":"LineString","coordinates":[[43.9756705,26.3219565],[43.9755907,26.3221546],[43.9754539,26.3223541],[43.9753225,26.3225705],[43.9752235,26.3227763],[43.9751534,26.3229731],[43.9750182,26.3232198],[43.9747368,26.3236437],[43.9745465,26.3238196]]}},{"type":"Feature","id":"way/759995343","properties":{"highway":"residential","id":"way/759995343","@id":"way/759995343"},"geometry":{"type":"LineString","coordinates":[[43.973847,26.3261597],[43.9737105,26.326072],[43.9741933,26.3254061],[43.974526,26.3255796]]}},{"type":"Feature","id":"way/759995344","properties":{"highway":"tertiary","oneway":"yes","id":"way/759995344","@id":"way/759995344"},"geometry":{"type":"LineString","coordinates":[[43.9733828,26.3261013],[43.9735254,26.3261153],[43.9736461,26.3261057],[43.9737105,26.326072]]}},{"type":"Feature","id":"way/759995345","properties":{"highway":"path","id":"way/759995345","@id":"way/759995345"},"geometry":{"type":"LineString","coordinates":[[43.9730844,26.324886],[43.9741933,26.3254061]]}},{"type":"Feature","id":"way/759995346","properties":{"highway":"residential","id":"way/759995346","@id":"way/759995346"},"geometry":{"type":"LineString","coordinates":[[43.9746334,26.3254111],[43.975234,26.3258701],[43.9754433,26.3260996]]}},{"type":"Feature","id":"way/759995347","properties":{"highway":"residential","id":"way/759995347","@id":"way/759995347"},"geometry":{"type":"LineString","coordinates":[[43.9748354,26.325094],[43.9755478,26.325435]]}},{"type":"Feature","id":"way/759995348","properties":{"highway":"residential","id":"way/759995348","@id":"way/759995348"},"geometry":{"type":"LineString","coordinates":[[43.9755478,26.325435],[43.975234,26.3258701]]}},{"type":"Feature","id":"way/759995349","properties":{"highway":"residential","id":"way/759995349","@id":"way/759995349"},"geometry":{"type":"LineString","coordinates":[[43.9755478,26.325435],[43.9756247,26.3254795],[43.9759556,26.3256714]]}},{"type":"Feature","id":"way/759995350","properties":{"highway":"residential","id":"way/759995350","@id":"way/759995350"},"geometry":{"type":"LineString","coordinates":[[43.9745465,26.3238196],[43.9741425,26.3244741],[43.9744325,26.3246269]]}},{"type":"Feature","id":"way/759995351","properties":{"highway":"residential","id":"way/759995351","@id":"way/759995351"},"geometry":{"type":"LineString","coordinates":[[43.9748602,26.3239935],[43.9744325,26.3246269]]}},{"type":"Feature","id":"way/759995353","properties":{"highway":"residential","id":"way/759995353","@id":"way/759995353"},"geometry":{"type":"LineString","coordinates":[[43.9744325,26.3246269],[43.9740033,26.3252619]]}},{"type":"Feature","id":"way/759995355","properties":{"highway":"residential","id":"way/759995355","@id":"way/759995355"},"geometry":{"type":"LineString","coordinates":[[43.9762611,26.3246135],[43.9756247,26.3254795]]}},{"type":"Feature","id":"way/759995358","properties":{"highway":"residential","id":"way/759995358","@id":"way/759995358"},"geometry":{"type":"LineString","coordinates":[[43.9777534,26.3224274],[43.9775857,26.3227685],[43.9774757,26.3229464],[43.9772853,26.3231676],[43.977111,26.3234681],[43.9769903,26.3237157],[43.9767113,26.324021]]}},{"type":"Feature","id":"way/759995359","properties":{"highway":"residential","id":"way/759995359","@id":"way/759995359"},"geometry":{"type":"LineString","coordinates":[[43.9771619,26.3243027],[43.9767113,26.324021]]}},{"type":"Feature","id":"way/759995360","properties":{"highway":"residential","id":"way/759995360","@id":"way/759995360"},"geometry":{"type":"LineString","coordinates":[[43.9767113,26.324021],[43.9763358,26.3238095]]}},{"type":"Feature","id":"way/759995361","properties":{"highway":"residential","id":"way/759995361","@id":"way/759995361"},"geometry":{"type":"LineString","coordinates":[[43.9763358,26.3238095],[43.9758862,26.3236084]]}},{"type":"Feature","id":"way/759995362","properties":{"highway":"residential","id":"way/759995362","@id":"way/759995362"},"geometry":{"type":"LineString","coordinates":[[43.9758721,26.3244478],[43.9763358,26.3238095]]}},{"type":"Feature","id":"way/759995363","properties":{"highway":"residential","id":"way/759995363","@id":"way/759995363"},"geometry":{"type":"LineString","coordinates":[[43.9762611,26.3246135],[43.9767113,26.324021]]}},{"type":"Feature","id":"way/759995364","properties":{"highway":"residential","id":"way/759995364","@id":"way/759995364"},"geometry":{"type":"LineString","coordinates":[[43.9772923,26.3221772],[43.9772086,26.322462],[43.9763358,26.3238095]]}},{"type":"Feature","id":"way/759995365","properties":{"highway":"tertiary","oneway":"yes","id":"way/759995365","@id":"way/759995365"},"geometry":{"type":"LineString","coordinates":[[43.9729826,26.3285528],[43.9730977,26.3280778],[43.9732721,26.3275778]]}},{"type":"Feature","id":"way/759995366","properties":{"highway":"tertiary","id":"way/759995366","@id":"way/759995366"},"geometry":{"type":"LineString","coordinates":[[43.9740043,26.3266597],[43.9738998,26.3267754],[43.9738112,26.3268734]]}},{"type":"Feature","id":"way/759995367","properties":{"highway":"tertiary","id":"way/759995367","@id":"way/759995367"},"geometry":{"type":"LineString","coordinates":[[43.9738112,26.3268734],[43.973728,26.3269768]]}},{"type":"Feature","id":"way/759995368","properties":{"highway":"tertiary","id":"way/759995368","@id":"way/759995368"},"geometry":{"type":"LineString","coordinates":[[43.973728,26.3269768],[43.9735376,26.3271859]]}},{"type":"Feature","id":"way/759995369","properties":{"highway":"tertiary","id":"way/759995369","@id":"way/759995369"},"geometry":{"type":"LineString","coordinates":[[43.9735376,26.3271859],[43.9732721,26.3275778]]}},{"type":"Feature","id":"way/759995370","properties":{"highway":"residential","id":"way/759995370","@id":"way/759995370"},"geometry":{"type":"LineString","coordinates":[[43.9717462,26.3267128],[43.9722716,26.3270201]]}},{"type":"Feature","id":"way/759995371","properties":{"highway":"residential","id":"way/759995371","@id":"way/759995371"},"geometry":{"type":"LineString","coordinates":[[43.9717868,26.3277458],[43.9722716,26.3270201]]}},{"type":"Feature","id":"way/759995372","properties":{"highway":"residential","id":"way/759995372","@id":"way/759995372"},"geometry":{"type":"LineString","coordinates":[[43.9722716,26.3270201],[43.9730377,26.3274472],[43.9732721,26.3275778]]}},{"type":"Feature","id":"way/759995373","properties":{"highway":"service","id":"way/759995373","@id":"way/759995373"},"geometry":{"type":"LineString","coordinates":[[43.9727624,26.3267701],[43.9726525,26.3269431],[43.9731674,26.3272388],[43.9733311,26.3270585],[43.9734544,26.3268951],[43.9729126,26.3265825],[43.9727624,26.3267701]]}},{"type":"Feature","id":"way/759995374","properties":{"highway":"service","id":"way/759995374","@id":"way/759995374"},"geometry":{"type":"LineString","coordinates":[[43.9735376,26.3271859],[43.9733311,26.3270585],[43.9727624,26.3267701],[43.9725264,26.3266258]]}},{"type":"Feature","id":"way/759995375","properties":{"highway":"service","id":"way/759995375","@id":"way/759995375"},"geometry":{"type":"LineString","coordinates":[[43.9722716,26.3270201],[43.9725264,26.3266258]]}},{"type":"Feature","id":"way/759995376","properties":{"highway":"service","id":"way/759995376","@id":"way/759995376"},"geometry":{"type":"LineString","coordinates":[[43.9725264,26.3266258],[43.9727597,26.3262652],[43.9732291,26.3265272],[43.9738112,26.3268734]]}},{"type":"Feature","id":"way/759995377","properties":{"highway":"service","id":"way/759995377","@id":"way/759995377"},"geometry":{"type":"LineString","coordinates":[[43.9732291,26.3265272],[43.973374,26.3263878],[43.9734945,26.3262771]]}},{"type":"Feature","id":"way/759995378","properties":{"highway":"service","id":"way/759995378","@id":"way/759995378"},"geometry":{"type":"LineString","coordinates":[[43.9738998,26.3267754],[43.973374,26.3263878]]}},{"type":"Feature","id":"way/759995379","properties":{"highway":"path","id":"way/759995379","@id":"way/759995379"},"geometry":{"type":"LineString","coordinates":[[43.9727597,26.3262652],[43.9722881,26.325981]]}},{"type":"Feature","id":"way/759995380","properties":{"highway":"residential","id":"way/759995380","@id":"way/759995380"},"geometry":{"type":"LineString","coordinates":[[43.9730377,26.3274472],[43.97216,26.3281494]]}},{"type":"Feature","id":"way/759995388","properties":{"highway":"residential","id":"way/759995388","@id":"way/759995388"},"geometry":{"type":"LineString","coordinates":[[43.9710519,26.3285622],[43.971304,26.3287714]]}},{"type":"Feature","id":"way/759995389","properties":{"highway":"residential","id":"way/759995389","@id":"way/759995389"},"geometry":{"type":"LineString","coordinates":[[43.97216,26.3281494],[43.9720309,26.3282425]]}},{"type":"Feature","id":"way/759995390","properties":{"highway":"residential","id":"way/759995390","@id":"way/759995390"},"geometry":{"type":"LineString","coordinates":[[43.9720309,26.3282425],[43.9716446,26.3285235],[43.971304,26.3287714]]}},{"type":"Feature","id":"way/759995391","properties":{"highway":"residential","id":"way/759995391","@id":"way/759995391"},"geometry":{"type":"LineString","coordinates":[[43.9723243,26.3283132],[43.9704349,26.3301609]]}},{"type":"Feature","id":"way/759995393","properties":{"highway":"residential","id":"way/759995393","@id":"way/759995393"},"geometry":{"type":"LineString","coordinates":[[43.971304,26.3287714],[43.9703625,26.3295094]]}},{"type":"Feature","id":"way/759995411","properties":{"highway":"path","id":"way/759995411","@id":"way/759995411"},"geometry":{"type":"LineString","coordinates":[[43.9717868,26.3277458],[43.9716319,26.3277875]]}},{"type":"Feature","id":"way/759995412","properties":{"highway":"path","id":"way/759995412","@id":"way/759995412"},"geometry":{"type":"LineString","coordinates":[[43.9716319,26.3277875],[43.971369,26.3278597],[43.9711223,26.3278356],[43.9710633,26.3279558]]}},{"type":"Feature","id":"way/759995415","properties":{"highway":"path","id":"way/759995415","@id":"way/759995415"},"geometry":{"type":"LineString","coordinates":[[43.9710633,26.3279558],[43.9713342,26.3280904],[43.9714763,26.3283068]]}},{"type":"Feature","id":"way/759995416","properties":{"highway":"path","id":"way/759995416","@id":"way/759995416"},"geometry":{"type":"LineString","coordinates":[[43.9710519,26.3285622],[43.9714763,26.3283068]]}},{"type":"Feature","id":"way/759995417","properties":{"highway":"path","id":"way/759995417","@id":"way/759995417"},"geometry":{"type":"LineString","coordinates":[[43.9714763,26.3283068],[43.9716446,26.3285235]]}},{"type":"Feature","id":"way/759995418","properties":{"highway":"path","id":"way/759995418","@id":"way/759995418"},"geometry":{"type":"LineString","coordinates":[[43.9714763,26.3283068],[43.9718974,26.3280688]]}},{"type":"Feature","id":"way/759995419","properties":{"highway":"path","id":"way/759995419","@id":"way/759995419"},"geometry":{"type":"LineString","coordinates":[[43.9711348,26.3274024],[43.9716319,26.3277875]]}},{"type":"Feature","id":"way/759995420","properties":{"highway":"path","id":"way/759995420","@id":"way/759995420"},"geometry":{"type":"LineString","coordinates":[[43.9716319,26.3277875],[43.9718974,26.3280688]]}},{"type":"Feature","id":"way/759995421","properties":{"highway":"path","id":"way/759995421","@id":"way/759995421"},"geometry":{"type":"LineString","coordinates":[[43.9718974,26.3280688],[43.9720309,26.3282425]]}},{"type":"Feature","id":"way/760015363","properties":{"highway":"residential","id":"way/760015363","@id":"way/760015363"},"geometry":{"type":"LineString","coordinates":[[43.9775854,26.3267551],[43.9782221,26.3272707]]}},{"type":"Feature","id":"way/760015364","properties":{"highway":"residential","id":"way/760015364","@id":"way/760015364"},"geometry":{"type":"LineString","coordinates":[[43.9782221,26.3272707],[43.9783807,26.3273999],[43.9784961,26.3274946]]}},{"type":"Feature","id":"way/760015366","properties":{"highway":"residential","id":"way/760015366","@id":"way/760015366"},"geometry":{"type":"LineString","coordinates":[[43.976026,26.3274993],[43.975366,26.3282472],[43.9753154,26.3283141]]}},{"type":"Feature","id":"way/760015367","properties":{"highway":"residential","id":"way/760015367","@id":"way/760015367"},"geometry":{"type":"LineString","coordinates":[[43.976026,26.3274993],[43.9765756,26.3279225]]}},{"type":"Feature","id":"way/760015368","properties":{"highway":"residential","id":"way/760015368","@id":"way/760015368"},"geometry":{"type":"LineString","coordinates":[[43.9765756,26.3279225],[43.975791,26.3287039]]}},{"type":"Feature","id":"way/760015369","properties":{"highway":"residential","id":"way/760015369","@id":"way/760015369"},"geometry":{"type":"LineString","coordinates":[[43.9765756,26.3279225],[43.9768996,26.3280915]]}},{"type":"Feature","id":"way/760015370","properties":{"highway":"residential","id":"way/760015370","@id":"way/760015370"},"geometry":{"type":"LineString","coordinates":[[43.9768996,26.3280915],[43.9762243,26.3289987]]}},{"type":"Feature","id":"way/760015371","properties":{"highway":"residential","id":"way/760015371","@id":"way/760015371"},"geometry":{"type":"LineString","coordinates":[[43.9768996,26.3280915],[43.9771323,26.3280757]]}},{"type":"Feature","id":"way/760015372","properties":{"highway":"residential","id":"way/760015372","@id":"way/760015372"},"geometry":{"type":"LineString","coordinates":[[43.9771323,26.3280757],[43.9773112,26.3281901],[43.9774675,26.3282902],[43.9777403,26.3284902]]}},{"type":"Feature","id":"way/760015373","properties":{"highway":"service","id":"way/760015373","@id":"way/760015373"},"geometry":{"type":"LineString","coordinates":[[43.9771323,26.3280757],[43.9775535,26.3276427],[43.9776654,26.3274764],[43.9777979,26.3271993],[43.9774127,26.3269008]]}},{"type":"Feature","id":"way/760015374","properties":{"highway":"service","id":"way/760015374","@id":"way/760015374"},"geometry":{"type":"LineString","coordinates":[[43.977084,26.3270769],[43.9775535,26.3276427]]}},{"type":"Feature","id":"way/760015375","properties":{"highway":"service","id":"way/760015375","@id":"way/760015375"},"geometry":{"type":"LineString","coordinates":[[43.9772483,26.3269889],[43.9776654,26.3274764]]}},{"type":"Feature","id":"way/760015376","properties":{"highway":"service","id":"way/760015376","@id":"way/760015376"},"geometry":{"type":"LineString","coordinates":[[43.9777979,26.3271993],[43.9779776,26.3273656],[43.9780836,26.3274632],[43.9782427,26.327553],[43.9783807,26.3273999]]}},{"type":"Feature","id":"way/760015377","properties":{"highway":"service","id":"way/760015377","@id":"way/760015377"},"geometry":{"type":"LineString","coordinates":[[43.9779776,26.3273656],[43.9777685,26.3275979]]}},{"type":"Feature","id":"way/760015378","properties":{"highway":"service","id":"way/760015378","@id":"way/760015378"},"geometry":{"type":"LineString","coordinates":[[43.9776654,26.3274764],[43.9777685,26.3275979],[43.9773112,26.3281901]]}},{"type":"Feature","id":"way/760015379","properties":{"highway":"service","id":"way/760015379","@id":"way/760015379"},"geometry":{"type":"LineString","coordinates":[[43.9774675,26.3282902],[43.9778156,26.3278117]]}},{"type":"Feature","id":"way/760015380","properties":{"highway":"service","id":"way/760015380","@id":"way/760015380"},"geometry":{"type":"LineString","coordinates":[[43.9778156,26.3278117],[43.977954,26.3279173],[43.978085,26.3280423]]}},{"type":"Feature","id":"way/760015381","properties":{"highway":"service","id":"way/760015381","@id":"way/760015381"},"geometry":{"type":"LineString","coordinates":[[43.9782427,26.327553],[43.977954,26.3279173]]}},{"type":"Feature","id":"way/760015382","properties":{"highway":"service","id":"way/760015382","@id":"way/760015382"},"geometry":{"type":"LineString","coordinates":[[43.9780836,26.3274632],[43.9778156,26.3278117]]}},{"type":"Feature","id":"way/760015383","properties":{"highway":"service","id":"way/760015383","@id":"way/760015383"},"geometry":{"type":"LineString","coordinates":[[43.9782221,26.3272707],[43.9782875,26.3272102]]}},{"type":"Feature","id":"way/760015384","properties":{"highway":"service","id":"way/760015384","@id":"way/760015384"},"geometry":{"type":"LineString","coordinates":[[43.9797164,26.3294385],[43.9795762,26.3293456],[43.9790684,26.3290091],[43.9787621,26.3288061],[43.978035,26.3283243]]}},{"type":"Feature","id":"way/760199870","properties":{"highway":"trunk","layer":"-1","name":"طريق الملك عبد العزيز","name:en":"King Abdulaziz Road","oneway":"yes","source":"Yahoo","id":"way/760199870","@id":"way/760199870"},"geometry":{"type":"LineString","coordinates":[[43.9461541,26.3597663],[43.9463185,26.3597513],[43.9465048,26.3596639],[43.9467401,26.3595535],[43.9477922,26.3590442],[43.9484506,26.3587254],[43.9486484,26.3586297],[43.9492835,26.3583222],[43.9504311,26.3577666],[43.9511053,26.3574402],[43.9517138,26.3570773],[43.9518702,26.3569717],[43.9523932,26.3566418],[43.9527133,26.3563797],[43.9529782,26.35615],[43.9532922,26.3558325],[43.9535874,26.3554662],[43.9537799,26.3552148],[43.9543496,26.3542245],[43.9544034,26.3541229],[43.9553999,26.3523134],[43.9558398,26.3515287],[43.9559188,26.3513879],[43.9563796,26.3505659],[43.9566812,26.3500329],[43.9570482,26.3493843],[43.9572077,26.3490883],[43.9574208,26.34872],[43.9577817,26.3481415],[43.9583938,26.3469826],[43.9585736,26.3466422],[43.9591892,26.3455508],[43.9592415,26.3454581],[43.9594062,26.3452609],[43.9596116,26.345015],[43.9602731,26.3442932],[43.9605398,26.3440023],[43.9607024,26.3437852],[43.9614996,26.342909],[43.9622432,26.3420381],[43.9625953,26.3416814],[43.9630655,26.3411378],[43.9636009,26.3405091],[43.9641366,26.3398382],[43.9645728,26.3392631],[43.9651353,26.3384796],[43.9656108,26.3378721],[43.965812,26.3375821],[43.9660754,26.3372317],[43.9663898,26.3368099],[43.9667306,26.3363407],[43.966867,26.3361545],[43.9671291,26.3358257],[43.9671971,26.335745],[43.9676715,26.3352232],[43.9683358,26.3344337],[43.968812,26.3338247],[43.9689634,26.3336381],[43.9693872,26.3330378],[43.9694279,26.3329802],[43.969663,26.3326894],[43.9697723,26.3325543],[43.9702183,26.3319658],[43.9703863,26.3317479],[43.9709638,26.3309852],[43.9727992,26.3287585],[43.9729826,26.3285528],[43.9744058,26.3270148],[43.9744833,26.3269353],[43.9754433,26.3260996],[43.9759556,26.3256714],[43.9763241,26.3253242],[43.9765522,26.3250748],[43.9767288,26.3248691],[43.9769226,26.3246434],[43.9771619,26.3243027],[43.9776257,26.3236052],[43.9781179,26.3228105],[43.9783081,26.3224858],[43.9784446,26.3222122]]}},{"type":"Feature","id":"way/761949872","properties":{"highway":"primary","name":"طريق الملك فيصل","oneway":"yes","id":"way/761949872","@id":"way/761949872"},"geometry":{"type":"LineString","coordinates":[[43.9808862,26.3322144],[43.980699,26.3319712],[43.97872,26.3307051],[43.9782851,26.3303898],[43.9770403,26.3296051],[43.976954,26.3295594],[43.9765838,26.3293255],[43.9761715,26.3290621],[43.9759321,26.3288935],[43.9757456,26.3287605],[43.9755763,26.3286099],[43.9753717,26.3283841],[43.9753154,26.3283141],[43.9752006,26.3281712],[43.9751069,26.3280574],[43.9750232,26.3279362],[43.9747218,26.3273841],[43.9744593,26.3270874],[43.9744058,26.3270148],[43.9740043,26.3266597],[43.973713,26.3264255],[43.9734945,26.3262771],[43.9725883,26.3256994],[43.9725427,26.3256376]]}},{"type":"Feature","id":"way/761949873","properties":{"highway":"residential","id":"way/761949873","@id":"way/761949873"},"geometry":{"type":"LineString","coordinates":[[43.9750232,26.3279362],[43.9737372,26.3294553],[43.9717567,26.3319481],[43.9714564,26.3323627]]}},{"type":"Feature","id":"way/964205533","properties":{"highway":"tertiary","name":"شارع التعليم","oneway":"yes","id":"way/964205533","@id":"way/964205533"},"geometry":{"type":"LineString","coordinates":[[43.9735821,26.3337431],[43.9738512,26.3333883],[43.9740224,26.333161],[43.9744926,26.3325176],[43.9749666,26.3319698],[43.9757282,26.3311172],[43.976954,26.3295594],[43.9770126,26.3294924],[43.9777403,26.3284902],[43.978085,26.3280423],[43.9784961,26.3274946],[43.9788106,26.327099],[43.9806893,26.3246968]]}},{"type":"Feature","id":"way/964252021","properties":{"highway":"residential","surface":"asphalt","id":"way/964252021","@id":"way/964252021"},"geometry":{"type":"LineString","coordinates":[[43.9701579,26.3263945],[43.9703876,26.3265815],[43.9708362,26.3269467],[43.9712443,26.3272788]]}},{"type":"Feature","id":"way/964252028","properties":{"highway":"tertiary","name":"شارع الصباخ","oneway":"yes","id":"way/964252028","@id":"way/964252028"},"geometry":{"type":"LineString","coordinates":[[43.9715094,26.3223438],[43.97111,26.3227684],[43.9707435,26.3231452],[43.9700193,26.3239978],[43.9698947,26.3241002]]}},{"type":"Feature","id":"way/964252029","properties":{"highway":"tertiary","name":"شارع المستودعات","oneway":"yes","id":"way/964252029","@id":"way/964252029"},"geometry":{"type":"LineString","coordinates":[[43.9698947,26.3241002],[43.9699759,26.323923],[43.9706565,26.323072],[43.9708784,26.3228237],[43.9711141,26.3225932],[43.9712309,26.3224669],[43.9714682,26.3222348]]}},{"type":"Feature","id":"way/964252030","properties":{"highway":"tertiary","id":"way/964252030","@id":"way/964252030"},"geometry":{"type":"LineString","coordinates":[[43.9740107,26.3236053],[43.9740754,26.3235303],[43.9744747,26.3229541],[43.9747998,26.3224871],[43.9749929,26.3222128],[43.97519,26.3219489]]}},{"type":"Feature","id":"way/964260689","properties":{"highway":"primary","name":"طريق الملك فيصل","oneway":"yes","source":"Yahoo","id":"way/964260689","@id":"way/964260689"},"geometry":{"type":"LineString","coordinates":[[43.8591137,26.3030587],[43.8594412,26.3030373],[43.859702,26.3030412],[43.85986,26.3030406],[43.8604265,26.3030825],[43.8606705,26.3031364],[43.8609208,26.3032167],[43.8611279,26.3033119],[43.8613473,26.3034277],[43.8615791,26.3035593],[43.8618712,26.3037326],[43.8622507,26.3038815],[43.8624998,26.3039606],[43.8626748,26.3039933],[43.8629495,26.3040243],[43.8632151,26.3040401],[43.8635413,26.3040303],[43.8639965,26.3039977],[43.8644241,26.3039731],[43.8650996,26.3038832],[43.8659203,26.3037069],[43.8675997,26.3032133],[43.8699933,26.3024513],[43.8729843,26.3014696],[43.8742822,26.3010484],[43.8748735,26.3008521],[43.8762206,26.3004232],[43.8795293,26.2993754],[43.8803411,26.2990888],[43.8812079,26.2988759],[43.8817679,26.2987418],[43.8824419,26.2986549],[43.8829616,26.2986202],[43.8835437,26.2986189],[43.8844049,26.2986839],[43.8850149,26.2987867],[43.8856342,26.2989407],[43.8861309,26.2990912],[43.8864737,26.2992082],[43.8869365,26.2994291],[43.8873448,26.2996166],[43.8877232,26.2998247],[43.8880989,26.3000515],[43.8884253,26.300277],[43.8887379,26.3005351],[43.8895353,26.3012705],[43.8908663,26.3026068],[43.8912837,26.3030775],[43.8913429,26.3031462],[43.8926563,26.3044755],[43.8932282,26.3050186],[43.8935152,26.3052523],[43.8938161,26.3054641],[43.8940035,26.3055855],[43.8942628,26.3057209],[43.8946253,26.305897],[43.8950137,26.3060495],[43.895558,26.3062106],[43.8957759,26.3062654],[43.8961642,26.3063461],[43.8965649,26.3063972],[43.8969114,26.3064161],[43.8974427,26.3064113],[43.8980137,26.3063728],[43.8983551,26.3063173],[43.8987396,26.3062332],[43.899128,26.306122],[43.8994622,26.3059933],[43.8998173,26.3058497],[43.9000899,26.3057089],[43.9006237,26.3053456],[43.9030887,26.3036359],[43.9045686,26.3026466],[43.9053601,26.3020862],[43.9057391,26.3017803],[43.9061066,26.3015859],[43.9065059,26.3013472],[43.906854,26.3011862],[43.907252,26.3010402],[43.9075142,26.3009668],[43.9076937,26.3009078],[43.9082594,26.3007837],[43.9083848,26.300763],[43.9084524,26.3007499],[43.9086344,26.3007302],[43.9088006,26.3007123],[43.9090601,26.3006897],[43.9095325,26.3006794],[43.9100146,26.3007163],[43.9106936,26.3008152],[43.911085,26.3009095],[43.9114825,26.30104],[43.9119818,26.3012412],[43.9126571,26.3016111],[43.9154634,26.3033803],[43.9160555,26.3037313],[43.9183957,26.3051705],[43.9213599,26.3070014],[43.9218172,26.3072839],[43.9223707,26.3076456],[43.9228104,26.3079381],[43.9230877,26.3081453],[43.9233922,26.3083727],[43.9239104,26.3088374],[43.9241442,26.3090863],[43.9243913,26.3093493],[43.9247809,26.309827],[43.9251707,26.3103813],[43.9255393,26.3109651],[43.9260757,26.3120658],[43.9262959,26.3125395],[43.9267537,26.313524],[43.9270795,26.3141698],[43.9272127,26.314412],[43.927522,26.3148699],[43.9279064,26.3153064],[43.9281974,26.3155913],[43.9286627,26.3159392],[43.9290438,26.3161772],[43.9296145,26.3164892],[43.9300797,26.3166783],[43.9304976,26.3168168],[43.9305774,26.3168347],[43.9309258,26.3169128],[43.9315475,26.317006],[43.9322495,26.317038],[43.9359498,26.3171652],[43.9407841,26.3173224],[43.9408086,26.3173231],[43.9447598,26.3174331],[43.9456295,26.3174546],[43.9457498,26.3174627],[43.9466011,26.3174916],[43.9475655,26.3175001],[43.9479282,26.3175284],[43.9493418,26.3175801],[43.9501917,26.31759],[43.9519188,26.317624],[43.9522138,26.3176335],[43.9546408,26.3176967],[43.9562243,26.3177337],[43.9567515,26.3177527],[43.9572673,26.3178075],[43.9577426,26.3178761],[43.9582681,26.317981],[43.959128,26.3181857],[43.9599342,26.3184022],[43.9607132,26.3187361],[43.9612958,26.3190697],[43.9616046,26.3192428],[43.9634163,26.3202583],[43.9638223,26.3204667],[43.9639585,26.3205447],[43.9642934,26.3207588],[43.964394,26.3208203],[43.9650519,26.3211833],[43.9655024,26.3214672],[43.9684191,26.3231535],[43.9698256,26.3240028],[43.9698947,26.3241002],[43.9703291,26.3243574],[43.970926,26.3247108],[43.9714763,26.3250366],[43.9719708,26.3253116],[43.9725427,26.3256376],[43.9726461,26.3256542],[43.9733828,26.3261013],[43.973706,26.3262905],[43.9740869,26.3265795],[43.9744833,26.3269353],[43.9745499,26.3270049],[43.9748175,26.3273328],[43.975095,26.3279009],[43.9751634,26.3279835],[43.9752571,26.3281061],[43.975366,26.3282472],[43.9754262,26.3283207],[43.9756191,26.3285553],[43.975791,26.3287039],[43.9759749,26.3288389],[43.9762243,26.3289987],[43.9766383,26.3292639],[43.9770126,26.3294924],[43.9770944,26.3295402],[43.9783306,26.3303171],[43.9787949,26.3306106],[43.9807525,26.3318829],[43.9810719,26.331966]]}},{"type":"Feature","id":"way/1017378937","properties":{"highway":"primary","name":"طريق عمر بن عبد العزيز","name:ar":"طريق عمر بن عبد العزيز","name:etymology":"عمر بن عبد العزيز","name:etymology:wikidata":"Q298403","name:etymology:wikipedia":"ar:عمر بن عبد العزيز","oneway":"yes","id":"way/1017378937","@id":"way/1017378937"},"geometry":{"type":"LineString","coordinates":[[43.9769865,26.3247226],[43.9771358,26.3247482],[43.9774501,26.3248216],[43.977751,26.324868],[43.9780476,26.3249394],[43.9782522,26.3249586],[43.9783835,26.3249389],[43.9785158,26.3248912],[43.978612,26.3248466],[43.9791273,26.3247438],[43.9797003,26.324696],[43.9800105,26.3246569],[43.9807209,26.3245888],[43.9811006,26.32454],[43.9816215,26.3244844],[43.9820618,26.3244866],[43.9828853,26.3245648],[43.9834226,26.3246602],[43.9839386,26.3247698],[43.9845034,26.3248783],[43.9855905,26.3250696]]}},{"type":"Feature","id":"way/1017378939","properties":{"highway":"primary","name":"طريق عمر بن عبد العزيز","name:ar":"طريق عمر بن عبد العزيز","name:etymology":"عمر بن عبد العزيز","name:etymology:wikidata":"Q298403","name:etymology:wikipedia":"ar:عمر بن عبد العزيز","oneway":"yes","id":"way/1017378939","@id":"way/1017378939"},"geometry":{"type":"LineString","coordinates":[[43.9855886,26.3251499],[43.9845073,26.3249648],[43.9834413,26.3247554],[43.9829505,26.3246696],[43.9825992,26.3246196],[43.9821268,26.3245891],[43.9817032,26.324598],[43.9814391,26.3246247],[43.9809101,26.3246717],[43.9806893,26.3246968],[43.9797923,26.3247893],[43.9792604,26.3248372],[43.9788563,26.3248943],[43.9784864,26.3250044],[43.9783348,26.3250469],[43.9781678,26.3250581],[43.9778236,26.3249864],[43.97747,26.3249147],[43.9770682,26.324814],[43.9769865,26.3247226]]}},{"type":"Feature","id":"way/1103460175","properties":{"highway":"service","id":"way/1103460175","@id":"way/1103460175"},"geometry":{"type":"LineString","coordinates":[[43.9787564,26.3266526],[43.9788283,26.3266927],[43.9788471,26.3266995],[43.9788726,26.3266944],[43.9791676,26.3263463],[43.9790177,26.3262729]]}},{"type":"Feature","id":"way/1103460176","properties":{"highway":"service","id":"way/1103460176","@id":"way/1103460176"},"geometry":{"type":"LineString","coordinates":[[43.9790177,26.3261985],[43.9789235,26.3262103],[43.9788726,26.3261867],[43.9785879,26.3260025],[43.9785804,26.3259485],[43.9785955,26.3259147],[43.97862,26.3258724],[43.9788047,26.3255582]]}},{"type":"Feature","id":"way/1103460177","properties":{"highway":"service","id":"way/1103460177","@id":"way/1103460177"},"geometry":{"type":"LineString","coordinates":[[43.978439,26.3262543],[43.9783636,26.3263404],[43.9783542,26.3263742],[43.9783768,26.326408],[43.978683,26.3266063],[43.9787564,26.3266526]]}},{"type":"Feature","id":"way/1103460178","properties":{"highway":"service","id":"way/1103460178","@id":"way/1103460178"},"geometry":{"type":"LineString","coordinates":[[43.978683,26.3266063],[43.9787954,26.3264889]]}},{"type":"Feature","id":"way/1103460179","properties":{"highway":"service","id":"way/1103460179","@id":"way/1103460179"},"geometry":{"type":"LineString","coordinates":[[43.978439,26.3262543],[43.9787954,26.3264889],[43.978861,26.3265321]]}},{"type":"Feature","id":"way/1103460180","properties":{"highway":"service","id":"way/1103460180","@id":"way/1103460180"},"geometry":{"type":"LineString","coordinates":[[43.9787954,26.3264889],[43.978857,26.3264152],[43.9788627,26.3264013],[43.978857,26.3263873],[43.9785578,26.3261985],[43.9785304,26.3261892],[43.9785021,26.3261943],[43.978439,26.3262543]]}},{"type":"Feature","id":"way/1103460181","properties":{"highway":"service","id":"way/1103460181","@id":"way/1103460181"},"geometry":{"type":"LineString","coordinates":[[43.9782875,26.3272102],[43.978618,26.3268172],[43.9787564,26.3266526],[43.9787933,26.3266123],[43.978861,26.3265321],[43.9789367,26.3264452],[43.9789876,26.3263928],[43.9790064,26.3263286],[43.9790177,26.3262729],[43.9790177,26.3261985],[43.9790347,26.326136],[43.9790762,26.3260515],[43.9791308,26.3259738],[43.9792288,26.3258488],[43.979342,26.3257542],[43.9794268,26.325717],[43.9795455,26.325668],[43.9796379,26.3255903],[43.9798734,26.325504]]}},{"type":"Feature","id":"way/1103460195","properties":{"highway":"service","id":"way/1103460195","@id":"way/1103460195"},"geometry":{"type":"LineString","coordinates":[[43.9783955,26.3281971],[43.9788685,26.3284882]]}},{"type":"Feature","id":"way/1103460196","properties":{"highway":"service","id":"way/1103460196","@id":"way/1103460196"},"geometry":{"type":"LineString","coordinates":[[43.9784787,26.3280887],[43.978955,26.3283811]]}},{"type":"Feature","id":"way/1103460197","properties":{"highway":"service","id":"way/1103460197","@id":"way/1103460197"},"geometry":{"type":"LineString","coordinates":[[43.9785541,26.3279904],[43.9790335,26.3282719]]}},{"type":"Feature","id":"way/1103460198","properties":{"highway":"service","id":"way/1103460198","@id":"way/1103460198"},"geometry":{"type":"LineString","coordinates":[[43.9786515,26.3278634],[43.9791213,26.3281583]]}},{"type":"Feature","id":"way/1103460199","properties":{"highway":"service","id":"way/1103460199","@id":"way/1103460199"},"geometry":{"type":"LineString","coordinates":[[43.9787237,26.3277693],[43.9792012,26.3280551]]}},{"type":"Feature","id":"way/1103460200","properties":{"highway":"service","id":"way/1103460200","@id":"way/1103460200"},"geometry":{"type":"LineString","coordinates":[[43.9788273,26.327639],[43.9792942,26.3279348]]}},{"type":"Feature","id":"way/1103460202","properties":{"highway":"service","id":"way/1103460202","@id":"way/1103460202"},"geometry":{"type":"LineString","coordinates":[[43.9783325,26.3283012],[43.9783466,26.328324],[43.9783655,26.32834],[43.9787208,26.3285723],[43.9787557,26.3285858],[43.9787915,26.3285799],[43.9788226,26.3285444]]}},{"type":"Feature","id":"way/1103460204","properties":{"highway":"service","id":"way/1103460204","@id":"way/1103460204"},"geometry":{"type":"LineString","coordinates":[[43.9789961,26.3274211],[43.9789053,26.3275387],[43.9788273,26.327639],[43.9787237,26.3277693],[43.9786515,26.3278634],[43.9785541,26.3279904],[43.9784787,26.3280887],[43.9783955,26.3281971],[43.9783513,26.3282547],[43.9783353,26.3282826],[43.9783325,26.3283012]]}},{"type":"Feature","id":"way/1103460205","properties":{"highway":"service","id":"way/1103460205","@id":"way/1103460205"},"geometry":{"type":"LineString","coordinates":[[43.9788226,26.3285444],[43.9788685,26.3284882],[43.978955,26.3283811],[43.9790335,26.3282719],[43.9791213,26.3281583],[43.9792012,26.3280551],[43.9792942,26.3279348],[43.9793698,26.3278371],[43.9794362,26.3277512],[43.9794475,26.3277242],[43.9794447,26.3276938]]}},{"type":"Feature","id":"way/1103460207","properties":{"highway":"service","oneway":"yes","id":"way/1103460207","@id":"way/1103460207"},"geometry":{"type":"LineString","coordinates":[[43.9799284,26.3278533],[43.9796564,26.3276836],[43.9794002,26.3275238],[43.9790362,26.3272967],[43.9788863,26.3272052]]}},{"type":"Feature","id":"way/1103515773","properties":{"highway":"service","id":"way/1103515773","@id":"way/1103515773"},"geometry":{"type":"LineString","coordinates":[[43.9786009,26.3291781],[43.9789021,26.3293412],[43.978968,26.3293581],[43.9790308,26.3293666],[43.9790904,26.3293384],[43.9791877,26.3292822],[43.979241,26.3292991],[43.9793069,26.3293384],[43.9793917,26.3293722],[43.9794576,26.3293778],[43.9795762,26.3293456]]}},{"type":"Feature","id":"way/1103515778","properties":{"highway":"service","id":"way/1103515778","@id":"way/1103515778"},"geometry":{"type":"LineString","coordinates":[[43.9787621,26.3288061],[43.9789189,26.3286156]]}},{"type":"Feature","id":"way/1103852523","properties":{"highway":"service","oneway":"yes","id":"way/1103852523","@id":"way/1103852523"},"geometry":{"type":"LineString","coordinates":[[43.9788106,26.327099],[43.9789343,26.3271414],[43.9790938,26.3272314],[43.9794538,26.3274577],[43.9803865,26.3280439]]}},{"type":"Feature","id":"way/1103852529","properties":{"highway":"service","oneway":"yes","id":"way/1103852529","@id":"way/1103852529"},"geometry":{"type":"LineString","coordinates":[[43.9788863,26.3272052],[43.9788106,26.327099]]}},{"type":"Feature","id":"way/1103852531","properties":{"highway":"service","id":"way/1103852531","@id":"way/1103852531"},"geometry":{"type":"LineString","coordinates":[[43.978204,26.3265474],[43.978618,26.3268172]]}},{"type":"Feature","id":"way/1103852532","properties":{"highway":"service","id":"way/1103852532","@id":"way/1103852532"},"geometry":{"type":"LineString","coordinates":[[43.9783542,26.3263742],[43.978204,26.3265474],[43.9779258,26.3268157]]}},{"type":"Feature","id":"way/1166296592","properties":{"highway":"service","id":"way/1166296592","@id":"way/1166296592"},"geometry":{"type":"LineString","coordinates":[[43.9777882,26.3235418],[43.9778839,26.3236538],[43.9779054,26.3237187],[43.9778826,26.3237956],[43.9776438,26.3242199],[43.9776103,26.32425],[43.9775701,26.3242572],[43.9774883,26.3242584],[43.9773235,26.3242596]]}},{"type":"Feature","id":"way/1168177038","properties":{"highway":"service","id":"way/1168177038","@id":"way/1168177038"},"geometry":{"type":"LineString","coordinates":[[43.9707936,26.3248667],[43.9709719,26.3249892],[43.9710443,26.325095],[43.9710443,26.3251215],[43.9710148,26.325214],[43.9711803,26.3253415]]}},{"type":"Feature","id":"way/1168187538","properties":{"highway":"residential","id":"way/1168187538","@id":"way/1168187538"},"geometry":{"type":"LineString","coordinates":[[43.9712484,26.3265305],[43.9708362,26.3269467]]}},{"type":"Feature","id":"way/1168187539","properties":{"highway":"residential","id":"way/1168187539","@id":"way/1168187539"},"geometry":{"type":"LineString","coordinates":[[43.9703876,26.3265815],[43.9707224,26.3262165],[43.970776,26.3262105],[43.9708351,26.3262309],[43.9712484,26.3265305],[43.9716544,26.3268247]]}},{"type":"Feature","id":"way/1179656580","properties":{"highway":"residential","id":"way/1179656580","@id":"way/1179656580"},"geometry":{"type":"LineString","coordinates":[[43.9772768,26.3243339],[43.9777458,26.3246142],[43.9777994,26.3246551],[43.9778135,26.3246869],[43.9778048,26.3247578],[43.977751,26.324868]]}},{"type":"Feature","id":"way/1249941569","properties":{"highway":"residential","id":"way/1249941569","@id":"way/1249941569"},"geometry":{"type":"LineString","coordinates":[[43.9733073,26.3291274],[43.9747218,26.3273841]]}},{"type":"Feature","id":"node/351320305","properties":{"highway":"traffic_signals","traffic_signals":"signal","id":"node/351320305","@id":"node/351320305"},"geometry":{"type":"Point","coordinates":[43.9744593,26.3270874]}},{"type":"Feature","id":"node/1533447644","properties":{"highway":"traffic_signals","traffic_signals":"signal","id":"node/1533447644","@id":"node/1533447644"},"geometry":{"type":"Point","coordinates":[43.9744833,26.3269353]}},{"type":"Feature","id":"node/1696880654","properties":{"highway":"traffic_signals","traffic_signals":"signal","id":"node/1696880654","@id":"node/1696880654"},"geometry":{"type":"Point","coordinates":[43.9744058,26.3270148]}},{"type":"Feature","id":"node/3648080749","properties":{"amenity":"fuel","fuel:diesel":"yes","name":"Sasco","payment:visa":"yes","id":"node/3648080749","@id":"node/3648080749"},"geometry":{"type":"Point","coordinates":[43.9753633,26.3279304]}},{"type":"Feature","id":"node/3648080750","properties":{"amenity":"place_of_worship","religion":"muslim","id":"node/3648080750","@id":"node/3648080750"},"geometry":{"type":"Point","coordinates":[43.977397,26.3246077]}},{"type":"Feature","id":"node/3648080751","properties":{"amenity":"place_of_worship","religion":"muslim","id":"node/3648080751","@id":"node/3648080751"},"geometry":{"type":"Point","coordinates":[43.9739591,26.3269337]}},{"type":"Feature","id":"node/3648080753","properties":{"amenity":"place_of_worship","religion":"muslim","id":"node/3648080753","@id":"node/3648080753"},"geometry":{"type":"Point","coordinates":[43.9743274,26.3252875]}},{"type":"Feature","id":"node/4108789704","properties":{"amenity":"fast_food","brand":"البيك","brand:ar":"البيك","brand:en":"Albaik","brand:wikidata":"Q4703536","brand:wikipedia":"ar:البيك","cuisine":"chicken","name":"البيك","name:ar":"البيك","name:en":"Albaik","takeaway":"yes","id":"node/4108789704","@id":"node/4108789704"},"geometry":{"type":"Point","coordinates":[43.977858,26.324157]}},{"type":"Feature","id":"node/4754013721","properties":{"addr:housenumber":"7906","addr:postcode":"52354","addr:street":"الجردة","email":"altwejry1@gmail.com","internet_access":"wlan","name":"التويجري للعود و العطور و العسل 0555134383","opening_hours":"Mo-Su 08:00-12:00, 16:00-20:00","phone":"+966163266333","shop":"convenience","id":"node/4754013721","@id":"node/4754013721"},"geometry":{"type":"Point","coordinates":[43.9741221,26.3254]}},{"type":"Feature","id":"node/5027392423","properties":{"name":"Loontani","name:ar":"Loontani","shop":"jewelry","id":"node/5027392423","@id":"node/5027392423"},"geometry":{"type":"Point","coordinates":[43.9735374,26.3260469]}},{"type":"Feature","id":"node/6244226532","properties":{"amenity":"atm","operator":"صراف الراجحي","id":"node/6244226532","@id":"node/6244226532"},"geometry":{"type":"Point","coordinates":[43.9735879,26.3231528]}},{"type":"Feature","id":"node/6633267570","properties":{"highway":"traffic_signals","traffic_signals":"signal","id":"node/6633267570","@id":"node/6633267570"},"geometry":{"type":"Point","coordinates":[43.9770126,26.3294924]}},{"type":"Feature","id":"node/6633267583","properties":{"highway":"traffic_signals","traffic_signals":"signal","id":"node/6633267583","@id":"node/6633267583"},"geometry":{"type":"Point","coordinates":[43.9745499,26.3270049]}},{"type":"Feature","id":"node/7099732465","properties":{"barrier":"gate","id":"node/7099732465","@id":"node/7099732465"},"geometry":{"type":"Point","coordinates":[43.9782875,26.3272102]}},{"type":"Feature","id":"node/7529893725","properties":{"name":"السنيدي للوازم الرحلات","shop":"convenience","id":"node/7529893725","@id":"node/7529893725"},"geometry":{"type":"Point","coordinates":[43.9737973,26.3271843]}},{"type":"Feature","id":"node/7529932162","properties":{"name":"شركة الهدف للوزام الصيد","shop":"weapons","id":"node/7529932162","@id":"node/7529932162"},"geometry":{"type":"Point","coordinates":[43.9746486,26.3251833]}}]}