{
  "type": "FeatureCollection",
  "features": [
    {
      "type": "Feature",
      "properties": { "osk_boundary_type": "race" },
      "geometry": {
        "type": "Polygon",
        "coordinates": [[
          [-1500, 0, -1600],
          [2500, 0, -1600],
          [2500, 0, 2400],
          [-1500, 0, 2400],
          [-1500, 0, -1600]
        ]]
      }
    },
    {
      "type": "Feature",
      "properties": { "osk_boundary_type": "local_race_boundary" },
      "geometry": {
        "type": "Polygon",
        "coordinates": [[
          [-1500, 0, -1600],
          [2500, 0, -1600],
          [2500, 0, 2400],
          [-1500, 0, 2400],
          [-1500, 0, -1600]
        ]]
      }
    }
  ]
}
